country,state,city,thana,union,zipcode
Bangladesh,Barishal,Barguna,Amtali,Amtali,8710
Bangladesh,Barishal,Barguna,Bamna,Bamna,8730
Bangladesh,Barishal,Barguna,Barguna Sadar,Barguna Sadar,8700
Bangladesh,Barishal,Barguna,Barguna Sadar,Nali Bandar,8701
Bangladesh,Barishal,Barguna,Betagi,Betagi,8740
Bangladesh,Barishal,Barguna,Betagi,Darul Ulam,8741
Bangladesh,Barishal,Barguna,Patharghata,Kakchira,8721
Bangladesh,Barishal,Barguna,Patharghata,Patharghata,8720
Bangladesh,Barishal,Barishal,Agailzhara,Agailzhara,8240
Bangladesh,Barishal,Barishal,Agailzhara,Gaila,8241
Bangladesh,Barishal,Barishal,Agailzhara,Paisarhat,8242
Bangladesh,Barishal,Barishal,Babuganj,Babuganj,8210
Bangladesh,Barishal,Barishal,Babuganj,Barishal Cadet,8216
Bangladesh,Barishal,Barishal,Babuganj,Chandpasha,8212
Bangladesh,Barishal,Barishal,Babuganj,Madhabpasha,8213
Bangladesh,Barishal,Barishal,Babuganj,Nizamuddin College,8215
Bangladesh,Barishal,Barishal,Babuganj,Rahamatpur,8211
Bangladesh,Barishal,Barishal,Babuganj,Thakur Mallik,8214
Bangladesh,Barishal,Barishal,Barajalia,Barajalia,8260
Bangladesh,Barishal,Barishal,Barajalia,Osman Manjil,8261
Bangladesh,Barishal,Barishal,Barishal Sadar,Barishal Sadar,8200
Bangladesh,Barishal,Barishal,Barishal Sadar,Bukhainagar,8201
Bangladesh,Barishal,Barishal,Barishal Sadar,Jaguarhat,8206
Bangladesh,Barishal,Barishal,Barishal Sadar,Kashipur,8205
Bangladesh,Barishal,Barishal,Barishal Sadar,Patang,8204
Bangladesh,Barishal,Barishal,Barishal Sadar,Saheberhat,8202
Bangladesh,Barishal,Barishal,Barishal Sadar,Sugandia,8203
Bangladesh,Barishal,Barishal,Gouranadi,Batajor,8233
Bangladesh,Barishal,Barishal,Gouranadi,Gouranadi,8230
Bangladesh,Barishal,Barishal,Gouranadi,Kashemabad,8232
Bangladesh,Barishal,Barishal,Gouranadi,Tarki Bandar,8231
Bangladesh,Barishal,Barishal,Mahendiganj,Langutia,8274
Bangladesh,Barishal,Barishal,Mahendiganj,Laskarpur,8271
Bangladesh,Barishal,Barishal,Mahendiganj,Mahendiganj,8270
Bangladesh,Barishal,Barishal,Mahendiganj,Nalgora,8273
Bangladesh,Barishal,Barishal,Mahendiganj,Ulania,8272
Bangladesh,Barishal,Barishal,Muladi,Charkalekhan,8252
Bangladesh,Barishal,Barishal,Muladi,Kazirchar,8251
Bangladesh,Barishal,Barishal,Muladi,Muladi,8250
Bangladesh,Barishal,Barishal,Sahebganj,Charamandi,8281
Bangladesh,Barishal,Barishal,Sahebganj,kalaskati,8284
Bangladesh,Barishal,Barishal,Sahebganj,Padri Shibpur,8282
Bangladesh,Barishal,Barishal,Sahebganj,Sahebganj,8280
Bangladesh,Barishal,Barishal,Sahebganj,Shialguni,8283
Bangladesh,Barishal,Barishal,Uzirpur,Dakuarhat,8223
Bangladesh,Barishal,Barishal,Uzirpur,Dhamura,8221
Bangladesh,Barishal,Barishal,Uzirpur,Jugirkanda,8222
Bangladesh,Barishal,Barishal,Uzirpur,Shikarpur,8224
Bangladesh,Barishal,Barishal,Uzirpur,Uzirpur,8220
Bangladesh,Barishal,Bhola,Bhola Sadar,Bhola Sadar,8300
Bangladesh,Barishal,Bhola,Bhola Sadar,Joynagar,8301
Bangladesh,Barishal,Bhola,Borhanuddin UPO,Borhanuddin UPO,8320
Bangladesh,Barishal,Bhola,Borhanuddin UPO,Mirzakalu,8321
Bangladesh,Barishal,Bhola,Charfashion,Charfashion,8340
Bangladesh,Barishal,Bhola,Charfashion,Dularhat,8341
Bangladesh,Barishal,Bhola,Charfashion,Keramatganj,8342
Bangladesh,Barishal,Bhola,Doulatkhan,Doulatkhan,8310
Bangladesh,Barishal,Bhola,Doulatkhan,Hajipur,8311
Bangladesh,Barishal,Bhola,Hajirhat,Hajirhat,8360
Bangladesh,Barishal,Bhola,Hatshoshiganj,Hatshoshiganj,8350
Bangladesh,Barishal,Bhola,Lalmohan UPO,Daurihat,8331
Bangladesh,Barishal,Bhola,Lalmohan UPO,Gazaria,8332
Bangladesh,Barishal,Bhola,Lalmohan UPO,Lalmohan UPO,8330
Bangladesh,Barishal,Jhalokathi,Jhalokathi Sadar,Baukathi,8402
Bangladesh,Barishal,Jhalokathi,Jhalokathi Sadar,Gabha,8403
Bangladesh,Barishal,Jhalokathi,Jhalokathi Sadar,Jhalokathi Sadar,8400
Bangladesh,Barishal,Jhalokathi,Jhalokathi Sadar,Nabagram,8401
Bangladesh,Barishal,Jhalokathi,Jhalokathi Sadar,Shekherhat,8404
Bangladesh,Barishal,Jhalokathi,Kathalia,Amua,8431
Bangladesh,Barishal,Jhalokathi,Kathalia,Kathalia,8430
Bangladesh,Barishal,Jhalokathi,Kathalia,Niamatee,8432
Bangladesh,Barishal,Jhalokathi,Kathalia,Shoulajalia,8433
Bangladesh,Barishal,Jhalokathi,Nalchhiti,Beerkathi,8421
Bangladesh,Barishal,Jhalokathi,Nalchhiti,Nalchhiti,8420
Bangladesh,Barishal,Jhalokathi,Rajapur,Rajapur,8410
Bangladesh,Barishal,Patuakhali,Bauphal,Bagabandar,8621
Bangladesh,Barishal,Patuakhali,Bauphal,Bauphal,8620
Bangladesh,Barishal,Patuakhali,Bauphal,Birpasha,8622
Bangladesh,Barishal,Patuakhali,Bauphal,Kalaia,8624
Bangladesh,Barishal,Patuakhali,Bauphal,Kalishari,8623
Bangladesh,Barishal,Patuakhali,Dashmina,Dashmina,8630
Bangladesh,Barishal,Patuakhali,Galachipa,Galachipa,8640
Bangladesh,Barishal,Patuakhali,Galachipa,Gazipur Bandar,8641
Bangladesh,Barishal,Patuakhali,Khepupara,Khepupara,8650
Bangladesh,Barishal,Patuakhali,Khepupara,Mahipur,8651
Bangladesh,Barishal,Patuakhali,Patuakhali Sadar,Dumkee,8602
Bangladesh,Barishal,Patuakhali,Patuakhali Sadar,Moukaran,8601
Bangladesh,Barishal,Patuakhali,Patuakhali Sadar,Patuakhali Sadar,8600
Bangladesh,Barishal,Patuakhali,Patuakhali Sadar,Rahimabad,8603
Bangladesh,Barishal,Patuakhali,Subidkhali,Subidkhali,8610
Bangladesh,Barishal,Pirojpur,Banaripara,Banaripara,8530
Bangladesh,Barishal,Pirojpur,Banaripara,Chakhar,8531
Bangladesh,Barishal,Pirojpur,Bhandaria,Bhandaria,8550
Bangladesh,Barishal,Pirojpur,Bhandaria,Dhaoa,8552
Bangladesh,Barishal,Pirojpur,Bhandaria,Kanudashkathi,8551
Bangladesh,Barishal,Pirojpur,kaukhali,Jolagati,8513
Bangladesh,Barishal,Pirojpur,kaukhali,Joykul,8512
Bangladesh,Barishal,Pirojpur,kaukhali,Kaukhali,8510
Bangladesh,Barishal,Pirojpur,kaukhali,Keundia,8511
Bangladesh,Barishal,Pirojpur,Mathbaria,Betmor Natun Hat,8565
Bangladesh,Barishal,Pirojpur,Mathbaria,Gulishakhali,8563
Bangladesh,Barishal,Pirojpur,Mathbaria,Halta,8562
Bangladesh,Barishal,Pirojpur,Mathbaria,Mathbaria,8560
Bangladesh,Barishal,Pirojpur,Mathbaria,Shilarganj,8566
Bangladesh,Barishal,Pirojpur,Mathbaria,Tiarkhali,8564
Bangladesh,Barishal,Pirojpur,Mathbaria,Tushkhali,8561
Bangladesh,Barishal,Pirojpur,Nazirpur,Nazirpur,8540
Bangladesh,Barishal,Pirojpur,Nazirpur,Sriramkathi,8541
Bangladesh,Barishal,Pirojpur,Pirojpur Sadar,Hularhat,8501
Bangladesh,Barishal,Pirojpur,Pirojpur Sadar,Parerhat,8502
Bangladesh,Barishal,Pirojpur,Pirojpur Sadar,Pirojpur Sadar,8500
Bangladesh,Barishal,Pirojpur,Swarupkathi,Darus Sunnat,8521
Bangladesh,Barishal,Pirojpur,Swarupkathi,Jalabari,8523
Bangladesh,Barishal,Pirojpur,Swarupkathi,Kaurikhara,8522
Bangladesh,Barishal,Pirojpur,Swarupkathi,Swarupkathi,8520
Bangladesh,Chittagong,Bandarban,Alikadam,Alikadam,4650
Bangladesh,Chittagong,Bandarban,Bandarban Sadar,Bandarban Sadar,4600
Bangladesh,Chittagong,Bandarban,Naikhong,Naikhong,4660
Bangladesh,Chittagong,Bandarban,Roanchhari,Roanchhari,4610
Bangladesh,Chittagong,Bandarban,Ruma,Ruma,4620
Bangladesh,Chittagong,Bandarban,Thanchi,Lama,4641
Bangladesh,Chittagong,Bandarban,Thanchi,Thanchi,4630
Bangladesh,Chittagong,Brahmanbaria,Akhaura,Akhaura,3450
Bangladesh,Chittagong,Brahmanbaria,Akhaura,Azampur,3451
Bangladesh,Chittagong,Brahmanbaria,Akhaura,Gangasagar,3452
Bangladesh,Chittagong,Brahmanbaria,Banchharampur,Banchharampur,3420
Bangladesh,Chittagong,Brahmanbaria,Brahamanbaria Sadar,Ashuganj,3402
Bangladesh,Chittagong,Brahmanbaria,Brahamanbaria Sadar,Ashuganj Share,3403
Bangladesh,Chittagong,Brahmanbaria,Brahamanbaria Sadar,Brahamanbaria Sadar,3400
Bangladesh,Chittagong,Brahmanbaria,Brahamanbaria Sadar,Poun,3404
Bangladesh,Chittagong,Brahmanbaria,Brahamanbaria Sadar,Talshahar,3401
Bangladesh,Chittagong,Brahmanbaria,Kasba,Chandidar,3462
Bangladesh,Chittagong,Brahmanbaria,Kasba,Chargachh,3463
Bangladesh,Chittagong,Brahmanbaria,Kasba,Gopinathpur,3464
Bangladesh,Chittagong,Brahmanbaria,Kasba,Kasba,3460
Bangladesh,Chittagong,Brahmanbaria,Kasba,Kuti,3461
Bangladesh,Chittagong,Brahmanbaria,Nabinagar,Jibanganj,3419
Bangladesh,Chittagong,Brahmanbaria,Nabinagar,Kaitala,3417
Bangladesh,Chittagong,Brahmanbaria,Nabinagar,Laubfatehpur,3411
Bangladesh,Chittagong,Brahmanbaria,Nabinagar,Nabinagar,3410
Bangladesh,Chittagong,Brahmanbaria,Nabinagar,Rasullabad,3412
Bangladesh,Chittagong,Brahmanbaria,Nabinagar,Ratanpur,3414
Bangladesh,Chittagong,Brahmanbaria,Nabinagar,Salimganj,3418
Bangladesh,Chittagong,Brahmanbaria,Nabinagar,Shahapur,3415
Bangladesh,Chittagong,Brahmanbaria,Nabinagar,Shamgram,3413
Bangladesh,Chittagong,Brahmanbaria,Nasirnagar,Fandauk,3441
Bangladesh,Chittagong,Brahmanbaria,Nasirnagar,Nasirnagar,3440
Bangladesh,Chittagong,Brahmanbaria,Sarail,Chandura,3432
Bangladesh,Chittagong,Brahmanbaria,Sarail,Sarial,3430
Bangladesh,Chittagong,Brahmanbaria,Sarail,Shahbajpur,3431
Bangladesh,Chittagong,Chandpur,Chandpur Sadar,Baburhat,3602
Bangladesh,Chittagong,Chandpur,Chandpur Sadar,Chandpur Sadar,3600
Bangladesh,Chittagong,Chandpur,Chandpur Sadar,Puranbazar,3601
Bangladesh,Chittagong,Chandpur,Chandpur Sadar,Sahatali,3603
Bangladesh,Chittagong,Chandpur,Faridganj,Chandra,3651
Bangladesh,Chittagong,Chandpur,Faridganj,Faridganj,3650
Bangladesh,Chittagong,Chandpur,Faridganj,Gridkaliandia,3653
Bangladesh,Chittagong,Chandpur,Faridganj,Islampur Shah Isain ,3655
Bangladesh,Chittagong,Chandpur,Faridganj,Rampurbazar,3654
Bangladesh,Chittagong,Chandpur,Faridganj,Rupsha,3652
Bangladesh,Chittagong,Chandpur,Hajiganj,Bolakhal,3611
Bangladesh,Chittagong,Chandpur,Hajiganj,Hajiganj,3610
Bangladesh,Chittagong,Chandpur,Hayemchar,Gandamara,3661
Bangladesh,Chittagong,Chandpur,Hayemchar,Hayemchar,3660
Bangladesh,Chittagong,Chandpur,Kachua,Kachua,3630
Bangladesh,Chittagong,Chandpur,Kachua,Pak Shrirampur,3631
Bangladesh,Chittagong,Chandpur,Kachua,Rahima Nagar,3632
Bangladesh,Chittagong,Chandpur,Kachua,Shachar,3633
Bangladesh,Chittagong,Chandpur,Matlobganj,Kalipur,3642
Bangladesh,Chittagong,Chandpur,Matlobganj,Matlobganj,3640
Bangladesh,Chittagong,Chandpur,Matlobganj,Mohanpur,3641
Bangladesh,Chittagong,Chandpur,Shahrasti,Chotoshi,3623
Bangladesh,Chittagong,Chandpur,Shahrasti,Islamia Madrasha,3624
Bangladesh,Chittagong,Chandpur,Shahrasti,Khilabazar,3621
Bangladesh,Chittagong,Chandpur,Shahrasti,Pashchim Kherihar Al,3622
Bangladesh,Chittagong,Chandpur,Shahrasti,Shahrasti,3620
Bangladesh,Chittagong,Chittagong,Anawara,Anowara,4376
Bangladesh,Chittagong,Chittagong,Anawara,Battali,4378
Bangladesh,Chittagong,Chittagong,Anawara,Paroikora,4377
Bangladesh,Chittagong,Chittagong,Boalkhali,Boalkhali,4366
Bangladesh,Chittagong,Chittagong,Boalkhali,Charandwip,4369
Bangladesh,Chittagong,Chittagong,Boalkhali,Iqbal Park,4365
Bangladesh,Chittagong,Chittagong,Boalkhali,Kadurkhal,4368
Bangladesh,Chittagong,Chittagong,Boalkhali,Kanungopara,4363
Bangladesh,Chittagong,Chittagong,Boalkhali,Sakpura,4367
Bangladesh,Chittagong,Chittagong,Boalkhali,Saroatoli,4364
Bangladesh,Chittagong,Chittagong,Chittagong Sadar,Al- Amin Baria Madra,4221
Bangladesh,Chittagong,Chittagong,Chittagong Sadar,Amin Jute Mills,4211
Bangladesh,Chittagong,Chittagong,Chittagong Sadar,Anandabazar,4215
Bangladesh,Chittagong,Chittagong,Chittagong Sadar,Bayezid Bostami,4210
Bangladesh,Chittagong,Chittagong,Chittagong Sadar,Chandgaon,4212
Bangladesh,Chittagong,Chittagong,Chittagong Sadar,Chawkbazar,4203
Bangladesh,Chittagong,Chittagong,Chittagong Sadar,Chitt. Cantonment,4220
Bangladesh,Chittagong,Chittagong,Chittagong Sadar,Chitt. Customs Acca,4219
Bangladesh,Chittagong,Chittagong,Chittagong Sadar,Chitt. Politechnic In,4209
Bangladesh,Chittagong,Chittagong,Chittagong Sadar,Chitt. Sailers Colon,4218
Bangladesh,Chittagong,Chittagong,Chittagong Sadar,Chittagong Airport,4205
Bangladesh,Chittagong,Chittagong,Chittagong Sadar,Chittagong Bandar,4100
Bangladesh,Chittagong,Chittagong,Chittagong Sadar,Chittagong GPO,4000
Bangladesh,Chittagong,Chittagong,Chittagong Sadar,Export Processing,4223
Bangladesh,Chittagong,Chittagong,Chittagong Sadar,Firozshah,4207
Bangladesh,Chittagong,Chittagong,Chittagong Sadar,Halishahar,4216
Bangladesh,Chittagong,Chittagong,Chittagong Sadar,Halishshar,4225
Bangladesh,Chittagong,Chittagong,Chittagong Sadar,Jalalabad,4214
Bangladesh,Chittagong,Chittagong,Chittagong Sadar,Jaldia Merine Accade,4206
Bangladesh,Chittagong,Chittagong,Chittagong Sadar,Middle Patenga,4222
Bangladesh,Chittagong,Chittagong,Chittagong Sadar,Mohard,4208
Bangladesh,Chittagong,Chittagong,Chittagong Sadar,North Halishahar,4226
Bangladesh,Chittagong,Chittagong,Chittagong Sadar,North Katuli,4217
Bangladesh,Chittagong,Chittagong,Chittagong Sadar,Pahartoli,4202
Bangladesh,Chittagong,Chittagong,Chittagong Sadar,Patenga,4204
Bangladesh,Chittagong,Chittagong,Chittagong Sadar,Rampura TSO,4224
Bangladesh,Chittagong,Chittagong,Chittagong Sadar,Wazedia,4213
Bangladesh,Chittagong,Chittagong,East Joara,Barma,4383
Bangladesh,Chittagong,Chittagong,East Joara,Dohazari,4382
Bangladesh,Chittagong,Chittagong,East Joara,East Joara,4380
Bangladesh,Chittagong,Chittagong,East Joara,Gachbaria,4381
Bangladesh,Chittagong,Chittagong,Fatikchhari,Bhandar Sharif,4352
Bangladesh,Chittagong,Chittagong,Fatikchhari,Fatikchhari,4350
Bangladesh,Chittagong,Chittagong,Fatikchhari,Harualchhari,4354
Bangladesh,Chittagong,Chittagong,Fatikchhari,Najirhat,4353
Bangladesh,Chittagong,Chittagong,Fatikchhari,Nanupur,4351
Bangladesh,Chittagong,Chittagong,Fatikchhari,Narayanhat,4355
Bangladesh,Chittagong,Chittagong,Hathazari,Chitt.University,4331
Bangladesh,Chittagong,Chittagong,Hathazari,Fatahabad,4335
Bangladesh,Chittagong,Chittagong,Hathazari,Gorduara,4332
Bangladesh,Chittagong,Chittagong,Hathazari,Hathazari,4330
Bangladesh,Chittagong,Chittagong,Hathazari,Katirhat,4333
Bangladesh,Chittagong,Chittagong,Hathazari,Madrasa,4339
Bangladesh,Chittagong,Chittagong,Hathazari,Mirzapur,4334
Bangladesh,Chittagong,Chittagong,Hathazari,Nuralibari,4337
Bangladesh,Chittagong,Chittagong,Hathazari,Yunus Nagar,4338
Bangladesh,Chittagong,Chittagong,Jaldi,Banigram,4393
Bangladesh,Chittagong,Chittagong,Jaldi,Gunagari,4392
Bangladesh,Chittagong,Chittagong,Jaldi,Jaldi,4390
Bangladesh,Chittagong,Chittagong,Jaldi,Khan Bahadur,4391
Bangladesh,Chittagong,Chittagong,Lohagara,Chunti,4398
Bangladesh,Chittagong,Chittagong,Lohagara,Lohagara,4396
Bangladesh,Chittagong,Chittagong,Lohagara,Padua,4397
Bangladesh,Chittagong,Chittagong,Mirsharai,Abutorab,4321
Bangladesh,Chittagong,Chittagong,Mirsharai,Azampur,4325
Bangladesh,Chittagong,Chittagong,Mirsharai,Bharawazhat,4323
Bangladesh,Chittagong,Chittagong,Mirsharai,Darrogahat,4322
Bangladesh,Chittagong,Chittagong,Mirsharai,Joarganj,4324
Bangladesh,Chittagong,Chittagong,Mirsharai,Korerhat,4327
Bangladesh,Chittagong,Chittagong,Mirsharai,Mirsharai,4320
Bangladesh,Chittagong,Chittagong,Mirsharai,Mohazanhat,4328
Bangladesh,Chittagong,Chittagong,Patiya,Budhpara,4371
Bangladesh,Chittagong,Chittagong,Patiya,Patiya Head Office,4370
Bangladesh,Chittagong,Chittagong,Rangunia,Dhamair,4361
Bangladesh,Chittagong,Chittagong,Rangunia,Rangunia,4360
Bangladesh,Chittagong,Chittagong,Rouzan,B.I.T Post Office,4349
Bangladesh,Chittagong,Chittagong,Rouzan,Beenajuri,4341
Bangladesh,Chittagong,Chittagong,Rouzan,Dewanpur,4347
Bangladesh,Chittagong,Chittagong,Rouzan,Fatepur,4345
Bangladesh,Chittagong,Chittagong,Rouzan,Gahira,4343
Bangladesh,Chittagong,Chittagong,Rouzan,Guzra Noapara,4346
Bangladesh,Chittagong,Chittagong,Rouzan,jagannath Hat,4344
Bangladesh,Chittagong,Chittagong,Rouzan,Kundeshwari,4342
Bangladesh,Chittagong,Chittagong,Rouzan,Mohamuni,4348
Bangladesh,Chittagong,Chittagong,Rouzan,Rouzan,4340
Bangladesh,Chittagong,Chittagong,Sandwip,Sandwip,4300
Bangladesh,Chittagong,Chittagong,Sandwip,Shiberhat,4301
Bangladesh,Chittagong,Chittagong,Sandwip,Urirchar,4302
Bangladesh,Chittagong,Chittagong,Satkania,Baitul Ijjat,4387
Bangladesh,Chittagong,Chittagong,Satkania,Bazalia,4388
Bangladesh,Chittagong,Chittagong,Satkania,Satkania,4386
Bangladesh,Chittagong,Chittagong,Sitakunda,Barabkunda,4312
Bangladesh,Chittagong,Chittagong,Sitakunda,Baroidhala,4311
Bangladesh,Chittagong,Chittagong,Sitakunda,Bawashbaria,4313
Bangladesh,Chittagong,Chittagong,Sitakunda,Bhatiari,4315
Bangladesh,Chittagong,Chittagong,Sitakunda,Fouzdarhat,4316
Bangladesh,Chittagong,Chittagong,Sitakunda,Jafrabad,4317
Bangladesh,Chittagong,Chittagong,Sitakunda,Kumira,4314
Bangladesh,Chittagong,Chittagong,Sitakunda,Sitakunda,4310
Bangladesh,Chittagong,Comilla,Barura,Barura,3560
Bangladesh,Chittagong,Comilla,Barura,Murdafarganj,3562
Bangladesh,Chittagong,Comilla,Barura,Poyalgachha,3561
Bangladesh,Chittagong,Comilla,Brahmanpara,Brahmanpara,3526
Bangladesh,Chittagong,Comilla,Burichang,Burichang,3520
Bangladesh,Chittagong,Comilla,Burichang,Maynamoti bazar,3521
Bangladesh,Chittagong,Comilla,Chandina,Chandia,3510
Bangladesh,Chittagong,Comilla,Chandina,Madhaiabazar,3511
Bangladesh,Chittagong,Comilla,Chouddagram,Batisa,3551
Bangladesh,Chittagong,Comilla,Chouddagram,Chiora,3552
Bangladesh,Chittagong,Comilla,Chouddagram,Chouddagram,3550
Bangladesh,Chittagong,Comilla,Comilla Sadar,Comilla Contoment,3501
Bangladesh,Chittagong,Comilla,Comilla Sadar,Comilla Sadar,3500
Bangladesh,Chittagong,Comilla,Comilla Sadar,Courtbari,3503
Bangladesh,Chittagong,Comilla,Comilla Sadar,Halimanagar,3502
Bangladesh,Chittagong,Comilla,Comilla Sadar,Suaganj,3504
Bangladesh,Chittagong,Comilla,Daudkandi,Dashpara,3518
Bangladesh,Chittagong,Comilla,Daudkandi,Daudkandi,3516
Bangladesh,Chittagong,Comilla,Daudkandi,Eliotganj,3519
Bangladesh,Chittagong,Comilla,Daudkandi,Gouripur,3517
Bangladesh,Chittagong,Comilla,Davidhar,Barashalghar,3532
Bangladesh,Chittagong,Comilla,Davidhar,Davidhar,3530
Bangladesh,Chittagong,Comilla,Davidhar,Dhamtee,3533
Bangladesh,Chittagong,Comilla,Davidhar,Gangamandal,3531
Bangladesh,Chittagong,Comilla,Homna,Homna,3546
Bangladesh,Chittagong,Comilla,Laksam,Bipulasar,3572
Bangladesh,Chittagong,Comilla,Laksam,Laksam,3570
Bangladesh,Chittagong,Comilla,Laksam,Lakshamanpur,3571
Bangladesh,Chittagong,Comilla,Langalkot,Chhariabazar,3582
Bangladesh,Chittagong,Comilla,Langalkot,Dhalua,3581
Bangladesh,Chittagong,Comilla,Langalkot,Gunabati,3583
Bangladesh,Chittagong,Comilla,Langalkot,Langalkot,3580
Bangladesh,Chittagong,Comilla,Muradnagar,Bangra,3543
Bangladesh,Chittagong,Comilla,Muradnagar,Companyganj,3542
Bangladesh,Chittagong,Comilla,Muradnagar,Muradnagar,3540
Bangladesh,Chittagong,Comilla,Muradnagar,Pantibazar,3545
Bangladesh,Chittagong,Comilla,Muradnagar,Ramchandarpur,3541
Bangladesh,Chittagong,Comilla,Muradnagar,Sonakanda,3544
Bangladesh,Chittagong,Coxs Bazar,Chiringga,Badarkali,4742
Bangladesh,Chittagong,Coxs Bazar,Chiringga,Chiringga,4740
Bangladesh,Chittagong,Coxs Bazar,Chiringga,Chiringga S.O,4741
Bangladesh,Chittagong,Coxs Bazar,Chiringga,Malumghat,4743
Bangladesh,Chittagong,Coxs Bazar,Coxs Bazar Sadar,Coxs Bazar Sadar,4700
Bangladesh,Chittagong,Coxs Bazar,Coxs Bazar Sadar,Eidga,4702
Bangladesh,Chittagong,Coxs Bazar,Coxs Bazar Sadar,Zhilanja,4701
Bangladesh,Chittagong,Coxs Bazar,Gorakghat,Gorakghat,4710
Bangladesh,Chittagong,Coxs Bazar,Kutubdia,Kutubdia,4720
Bangladesh,Chittagong,Coxs Bazar,Ramu,Ramu,4730
Bangladesh,Chittagong,Coxs Bazar,Teknaf,Hnila,4761
Bangladesh,Chittagong,Coxs Bazar,Teknaf,St.Martin,4762
Bangladesh,Chittagong,Coxs Bazar,Teknaf,Teknaf,4760
Bangladesh,Chittagong,Coxs Bazar,Ukhia,Ukhia,4750
Bangladesh,Chittagong,Feni,Chhagalnaia,Chhagalnaia,3910
Bangladesh,Chittagong,Feni,Chhagalnaia,Daraga Hat,3912
Bangladesh,Chittagong,Feni,Chhagalnaia,Maharajganj,3911
Bangladesh,Chittagong,Feni,Chhagalnaia,Puabashimulia,3913
Bangladesh,Chittagong,Feni,Dagonbhuia,Chhilonia,3922
Bangladesh,Chittagong,Feni,Dagonbhuia,Dagondhuia,3920
Bangladesh,Chittagong,Feni,Dagonbhuia,Dudmukha,3921
Bangladesh,Chittagong,Feni,Dagonbhuia,Rajapur,3923
Bangladesh,Chittagong,Feni,Feni Sadar,Fazilpur,3901
Bangladesh,Chittagong,Feni,Feni Sadar,Feni Sadar,3900
Bangladesh,Chittagong,Feni,Feni Sadar,Laskarhat,3903
Bangladesh,Chittagong,Feni,Feni Sadar,Sharshadie,3902
Bangladesh,Chittagong,Feni,Pashurampur,Fulgazi,3942
Bangladesh,Chittagong,Feni,Pashurampur,Munshirhat,3943
Bangladesh,Chittagong,Feni,Pashurampur,Pashurampur,3940
Bangladesh,Chittagong,Feni,Pashurampur,Shuarbazar,3941
Bangladesh,Chittagong,Feni,Sonagazi,Ahmadpur,3932
Bangladesh,Chittagong,Feni,Sonagazi,Kazirhat,3933
Bangladesh,Chittagong,Feni,Sonagazi,Motiganj,3931
Bangladesh,Chittagong,Feni,Sonagazi,Sonagazi,3930
Bangladesh,Chittagong,Khagrachari,Diginala,Diginala,4420
Bangladesh,Chittagong,Khagrachari,Khagrachari Sadar,Khagrachari Sadar,4400
Bangladesh,Chittagong,Khagrachari,Laxmichhari,Laxmichhari,4470
Bangladesh,Chittagong,Khagrachari,Mahalchhari,Mahalchhari,4430
Bangladesh,Chittagong,Khagrachari,Manikchhari,Manikchhari,4460
Bangladesh,Chittagong,Khagrachari,Matiranga,Matiranga,4450
Bangladesh,Chittagong,Khagrachari,Panchhari,Panchhari,4410
Bangladesh,Chittagong,Khagrachari,Ramghar Head Office,Ramghar Head Office,4440
Bangladesh,Chittagong,Lakshmipur,Char Alexgander,Char Alexgander ,3730
Bangladesh,Chittagong,Lakshmipur,Char Alexgander,Hajirghat,3731
Bangladesh,Chittagong,Lakshmipur,Char Alexgander,Ramgatirhat,3732
Bangladesh,Chittagong,Lakshmipur,Lakshimpur Sadar,Amani Lakshimpur,3709
Bangladesh,Chittagong,Lakshmipur,Lakshimpur Sadar,Bhabaniganj,3702
Bangladesh,Chittagong,Lakshmipur,Lakshimpur Sadar,Chandraganj,3708
Bangladesh,Chittagong,Lakshmipur,Lakshimpur Sadar,Choupalli,3707
Bangladesh,Chittagong,Lakshmipur,Lakshimpur Sadar,Dalal Bazar,3701
Bangladesh,Chittagong,Lakshmipur,Lakshimpur Sadar,Duttapara,3706
Bangladesh,Chittagong,Lakshmipur,Lakshimpur Sadar,Keramatganj,3704
Bangladesh,Chittagong,Lakshmipur,Lakshimpur Sadar,Lakshimpur Sadar,3700
Bangladesh,Chittagong,Lakshmipur,Lakshimpur Sadar,Mandari,3703
Bangladesh,Chittagong,Lakshmipur,Lakshimpur Sadar,Rupchara,3705
Bangladesh,Chittagong,Lakshmipur,Ramganj,Alipur,3721
Bangladesh,Chittagong,Lakshmipur,Ramganj,Dolta,3725
Bangladesh,Chittagong,Lakshmipur,Ramganj,Kanchanpur,3723
Bangladesh,Chittagong,Lakshmipur,Ramganj,Naagmud,3724
Bangladesh,Chittagong,Lakshmipur,Ramganj,Panpara,3722
Bangladesh,Chittagong,Lakshmipur,Ramganj,Ramganj,3720
Bangladesh,Chittagong,Lakshmipur,Raypur,Bhuabari,3714
Bangladesh,Chittagong,Lakshmipur,Raypur,Haydarganj,3713
Bangladesh,Chittagong,Lakshmipur,Raypur,Nagerdighirpar,3712
Bangladesh,Chittagong,Lakshmipur,Raypur,Rakhallia,3711
Bangladesh,Chittagong,Lakshmipur,Raypur,Raypur,3710
Bangladesh,Chittagong,Noakhali,Basurhat,Basur Hat,3850
Bangladesh,Chittagong,Noakhali,Basurhat,Charhajari,3851
Bangladesh,Chittagong,Noakhali,Begumganj,Alaiarpur,3831
Bangladesh,Chittagong,Noakhali,Begumganj,Amisha Para,3847
Bangladesh,Chittagong,Noakhali,Begumganj,Banglabazar,3822
Bangladesh,Chittagong,Noakhali,Begumganj,Bazra,3824
Bangladesh,Chittagong,Noakhali,Begumganj,Begumganj,3820
Bangladesh,Chittagong,Noakhali,Begumganj,Bhabani Jibanpur,3837
Bangladesh,Chittagong,Noakhali,Begumganj,Choumohani,3821
Bangladesh,Chittagong,Noakhali,Begumganj,Dauti,3843
Bangladesh,Chittagong,Noakhali,Begumganj,Durgapur,3848
Bangladesh,Chittagong,Noakhali,Begumganj,Gopalpur,3828
Bangladesh,Chittagong,Noakhali,Begumganj,Jamidar Hat,3825
Bangladesh,Chittagong,Noakhali,Begumganj,Joyag,3844
Bangladesh,Chittagong,Noakhali,Begumganj,Joynarayanpur,3829
Bangladesh,Chittagong,Noakhali,Begumganj,Khalafat Bazar,3833
Bangladesh,Chittagong,Noakhali,Begumganj,Khalishpur,3842
Bangladesh,Chittagong,Noakhali,Begumganj,Maheshganj,3838
Bangladesh,Chittagong,Noakhali,Begumganj,Mir Owarishpur,3823
Bangladesh,Chittagong,Noakhali,Begumganj,Nadona,3839
Bangladesh,Chittagong,Noakhali,Begumganj,Nandiapara,3841
Bangladesh,Chittagong,Noakhali,Begumganj,Oachhekpur,3835
Bangladesh,Chittagong,Noakhali,Begumganj,Rajganj,3834
Bangladesh,Chittagong,Noakhali,Begumganj,Sonaimuri,3827
Bangladesh,Chittagong,Noakhali,Begumganj,Tangirpar,3832
Bangladesh,Chittagong,Noakhali,Begumganj,Thanar Hat,3845
Bangladesh,Chittagong,Noakhali,Chatkhil,Bansa Bazar,3879
Bangladesh,Chittagong,Noakhali,Chatkhil,Bodalcourt,3873
Bangladesh,Chittagong,Noakhali,Chatkhil,Chatkhil,3870
Bangladesh,Chittagong,Noakhali,Chatkhil,Dosh Gharia,3878
Bangladesh,Chittagong,Noakhali,Chatkhil,Karihati,3877
Bangladesh,Chittagong,Noakhali,Chatkhil,Khilpara,3872
Bangladesh,Chittagong,Noakhali,Chatkhil,Palla,3871
Bangladesh,Chittagong,Noakhali,Chatkhil,Rezzakpur,3874
Bangladesh,Chittagong,Noakhali,Chatkhil,Sahapur,3881
Bangladesh,Chittagong,Noakhali,Chatkhil,Sampara,3882
Bangladesh,Chittagong,Noakhali,Chatkhil,Shingbahura,3883
Bangladesh,Chittagong,Noakhali,Chatkhil,Solla,3875
Bangladesh,Chittagong,Noakhali,Hatiya,Afazia,3891
Bangladesh,Chittagong,Noakhali,Hatiya,Hatiya,3890
Bangladesh,Chittagong,Noakhali,Hatiya,Tamoraddi,3892
Bangladesh,Chittagong,Noakhali,Noakhali Sadar,Chaprashir Hat,3811
Bangladesh,Chittagong,Noakhali,Noakhali Sadar,Char Jabbar,3812
Bangladesh,Chittagong,Noakhali,Noakhali Sadar,Charam Tua,3809
Bangladesh,Chittagong,Noakhali,Noakhali Sadar,Din Monir Hat,3803
Bangladesh,Chittagong,Noakhali,Noakhali Sadar,Kabirhat,3807
Bangladesh,Chittagong,Noakhali,Noakhali Sadar,Khalifar Hat,3808
Bangladesh,Chittagong,Noakhali,Noakhali Sadar,Mriddarhat,3806
Bangladesh,Chittagong,Noakhali,Noakhali Sadar,Noakhali College,3801
Bangladesh,Chittagong,Noakhali,Noakhali Sadar,Noakhali Sadar,3800
Bangladesh,Chittagong,Noakhali,Noakhali Sadar,Pak Kishoreganj,3804
Bangladesh,Chittagong,Noakhali,Noakhali Sadar,Sonapur,3802
Bangladesh,Chittagong,Noakhali,Senbag,Beezbag,3862
Bangladesh,Chittagong,Noakhali,Senbag,Chatarpaia,3864
Bangladesh,Chittagong,Noakhali,Senbag,Kallyandi,3861
Bangladesh,Chittagong,Noakhali,Senbag,Kankirhat,3863
Bangladesh,Chittagong,Noakhali,Senbag,Senbag,3860
Bangladesh,Chittagong,Noakhali,Senbag,T.P. Lamua,3865
Bangladesh,Chittagong,Rangamati,Barakal,Barakal,4570
Bangladesh,Chittagong,Rangamati,Bilaichhari,Bilaichhari,4550
Bangladesh,Chittagong,Rangamati,Jarachhari,Jarachhari,4560
Bangladesh,Chittagong,Rangamati,Kalampati,Betbunia,4511
Bangladesh,Chittagong,Rangamati,Kalampati,Kalampati,4510
Bangladesh,Chittagong,Rangamati,kaptai,Chandraghona,4531
Bangladesh,Chittagong,Rangamati,kaptai,Kaptai,4530
Bangladesh,Chittagong,Rangamati,kaptai,Kaptai Nuton Bazar,4533
Bangladesh,Chittagong,Rangamati,kaptai,Kaptai Project,4532
Bangladesh,Chittagong,Rangamati,Longachh,Longachh,4580
Bangladesh,Chittagong,Rangamati,Marishya,Marishya,4590
Bangladesh,Chittagong,Rangamati,Naniachhar,Nanichhar,4520
Bangladesh,Chittagong,Rangamati,Rajsthali,Rajsthali,4540
Bangladesh,Chittagong,Rangamati,Rangamati Sadar,Rangamati Sadar,4500
Bangladesh,Dhaka,Dhaka,Demra,Demra,1360
Bangladesh,Dhaka,Dhaka,Demra,Matuail,1362
Bangladesh,Dhaka,Dhaka,Demra,Sarulia,1361
Bangladesh,Dhaka,Dhaka,Dhaka Cantt.,Dhaka CantonmentTSO,1206
Bangladesh,Dhaka,Dhaka,Dhamrai,Dhamrai,1350
Bangladesh,Dhaka,Dhaka,Dhamrai,Kamalpur,1351
Bangladesh,Dhaka,Dhaka,Dhanmondi,Jigatala TSO,1209
Bangladesh,Dhaka,Dhaka,Gulshan,Banani TSO,1213
Bangladesh,Dhaka,Dhaka,Gulshan,Gulshan Model Town ,1212
Bangladesh,Dhaka,Dhaka,Jatrabari,Dhania TSO,1232
Bangladesh,Dhaka,Dhaka,Joypara,Joypara,1330
Bangladesh,Dhaka,Dhaka,Joypara,Narisha,1332
Bangladesh,Dhaka,Dhaka,Joypara,Palamganj,1331
Bangladesh,Dhaka,Dhaka,Keraniganj,Ati,1312
Bangladesh,Dhaka,Dhaka,Keraniganj,Dhaka Jute Mills,1311
Bangladesh,Dhaka,Dhaka,Keraniganj,Kalatia,1313
Bangladesh,Dhaka,Dhaka,Keraniganj,Keraniganj,1310
Bangladesh,Dhaka,Dhaka,Khilgaon,KhilgaonTSO,1219
Bangladesh,Dhaka,Dhaka,Khilkhet,KhilkhetTSO,1229
Bangladesh,Dhaka,Dhaka,Lalbag,Posta TSO,1211
Bangladesh,Dhaka,Dhaka,Mirpur,Mirpur TSO,1216
Bangladesh,Dhaka,Dhaka,Mohammadpur,Mohammadpur Housing ,1207
Bangladesh,Dhaka,Dhaka,Mohammadpur,Sangsad BhabanTSO,1225
Bangladesh,Dhaka,Dhaka,Motijheel,BangabhabanTSO,1222
Bangladesh,Dhaka,Dhaka,Motijheel,DilkushaTSO,1223
Bangladesh,Dhaka,Dhaka,Nawabganj,Agla,1323
Bangladesh,Dhaka,Dhaka,Nawabganj,Churain,1325
Bangladesh,Dhaka,Dhaka,Nawabganj,Daudpur,1322
Bangladesh,Dhaka,Dhaka,Nawabganj,Hasnabad,1321
Bangladesh,Dhaka,Dhaka,Nawabganj,Khalpar,1324
Bangladesh,Dhaka,Dhaka,Nawabganj,Nawabganj,1320
Bangladesh,Dhaka,Dhaka,New market,New Market TSO,1205
Bangladesh,Dhaka,Dhaka,Palton,Dhaka GPO,1000
Bangladesh,Dhaka,Dhaka,Ramna,Shantinagr TSO,1217
Bangladesh,Dhaka,Dhaka,Sabujbag,Basabo TSO,1214
Bangladesh,Dhaka,Dhaka,Savar,Amin Bazar,1348
Bangladesh,Dhaka,Dhaka,Savar,Dairy Farm,1341
Bangladesh,Dhaka,Dhaka,Savar,EPZ,1349
Bangladesh,Dhaka,Dhaka,Savar,Jahangirnagar Univer,1342
Bangladesh,Dhaka,Dhaka,Savar,Kashem Cotton Mills,1346
Bangladesh,Dhaka,Dhaka,Savar,Rajphulbaria,1347
Bangladesh,Dhaka,Dhaka,Savar,Savar,1340
Bangladesh,Dhaka,Dhaka,Savar,Savar Canttonment,1344
Bangladesh,Dhaka,Dhaka,Savar,Saver P.A.T.C,1343
Bangladesh,Dhaka,Dhaka,Savar,Shimulia,1345
Bangladesh,Dhaka,Dhaka,Sutrapur,Dhaka Sadar HO,1100
Bangladesh,Dhaka,Dhaka,Sutrapur,Gendaria TSO,1204
Bangladesh,Dhaka,Dhaka,Sutrapur,Wari TSO,1203
Bangladesh,Dhaka,Dhaka,Tejgaon,Tejgaon TSO,1215
Bangladesh,Dhaka,Dhaka,Tejgaon Industrial Area,Dhaka Politechnic ,1208
Bangladesh,Dhaka,Dhaka,Uttara,Uttara Model TwonTSO,1230
Bangladesh,Dhaka,Faridpur,Alfadanga,Alfadanga,7870
Bangladesh,Dhaka,Faridpur,Bhanga,Bhanga,7830
Bangladesh,Dhaka,Faridpur,Boalmari,Boalmari,7860
Bangladesh,Dhaka,Faridpur,Boalmari,Rupatpat,7861
Bangladesh,Dhaka,Faridpur,Charbhadrasan,Charbadrashan,7810
Bangladesh,Dhaka,Faridpur,Faridpur Sadar,Ambikapur,7802
Bangladesh,Dhaka,Faridpur,Faridpur Sadar,Baitulaman Politecni,7803
Bangladesh,Dhaka,Faridpur,Faridpur Sadar,Faridpursadar,7800
Bangladesh,Dhaka,Faridpur,Faridpur Sadar,Kanaipur,7801
Bangladesh,Dhaka,Faridpur,Madukhali,Kamarkali,7851
Bangladesh,Dhaka,Faridpur,Madukhali,Madukhali,7850
Bangladesh,Dhaka,Faridpur,Nagarkanda,Nagarkanda,7840
Bangladesh,Dhaka,Faridpur,Nagarkanda,Talma,7841
Bangladesh,Dhaka,Faridpur,Sadarpur,Bishwa jaker Manjil,7822
Bangladesh,Dhaka,Faridpur,Sadarpur,Hat Krishapur,7821
Bangladesh,Dhaka,Faridpur,Sadarpur,Sadarpur,7820
Bangladesh,Dhaka,Faridpur,Shriangan,Shriangan,7804
Bangladesh,Dhaka,Gazipur,Gazipur Sadar,B.O.F,1703
Bangladesh,Dhaka,Gazipur,Gazipur Sadar,B.R.R,1701
Bangladesh,Dhaka,Gazipur,Gazipur Sadar,Chandna,1702
Bangladesh,Dhaka,Gazipur,Gazipur Sadar,Gazipur Sadar,1700
Bangladesh,Dhaka,Gazipur,Gazipur Sadar,National University,1704
Bangladesh,Dhaka,Gazipur,Kaliakaar,Kaliakaar,1750
Bangladesh,Dhaka,Gazipur,Kaliakaar,Safipur,1751
Bangladesh,Dhaka,Gazipur,Kaliganj,Kaliganj,1720
Bangladesh,Dhaka,Gazipur,Kaliganj,Pubail,1721
Bangladesh,Dhaka,Gazipur,Kaliganj,Santanpara,1722
Bangladesh,Dhaka,Gazipur,Kaliganj,Vaoal Jamalpur,1723
Bangladesh,Dhaka,Gazipur,Kapashia,kapashia,1730
Bangladesh,Dhaka,Gazipur,Monnunagar,Ershad Nagar,1712
Bangladesh,Dhaka,Gazipur,Monnunagar,Monnunagar,1710
Bangladesh,Dhaka,Gazipur,Monnunagar,Nishat Nagar,1711
Bangladesh,Dhaka,Gazipur,Sreepur,Barmi,1743
Bangladesh,Dhaka,Gazipur,Sreepur,Bashamur,1747
Bangladesh,Dhaka,Gazipur,Sreepur,Boubi,1748
Bangladesh,Dhaka,Gazipur,Sreepur,Kawraid,1745
Bangladesh,Dhaka,Gazipur,Sreepur,Satkhamair,1744
Bangladesh,Dhaka,Gazipur,Sreepur,Sreepur,1740
Bangladesh,Dhaka,Gazipur,Sripur,Rajendrapur,1741
Bangladesh,Dhaka,Gazipur,Sripur,Rajendrapur Canttome,1742
Bangladesh,Dhaka,Gopalganj,Gopalganj Sadar,Barfa,8102
Bangladesh,Dhaka,Gopalganj,Gopalganj Sadar,Chandradighalia,8013
Bangladesh,Dhaka,Gopalganj,Gopalganj Sadar,Gopalganj Sadar,8100
Bangladesh,Dhaka,Gopalganj,Gopalganj Sadar,Ulpur,8101
Bangladesh,Dhaka,Gopalganj,Kashiani,Jonapur,8133
Bangladesh,Dhaka,Gopalganj,Kashiani,Kashiani,8130
Bangladesh,Dhaka,Gopalganj,Kashiani,Ramdia College,8131
Bangladesh,Dhaka,Gopalganj,Kashiani,Ratoil,8132
Bangladesh,Dhaka,Gopalganj,Kotalipara,Kotalipara,8110
Bangladesh,Dhaka,Gopalganj,Maksudpur,Batkiamari,8141
Bangladesh,Dhaka,Gopalganj,Maksudpur,Khandarpara,8142
Bangladesh,Dhaka,Gopalganj,Maksudpur,Maksudpur,8140
Bangladesh,Dhaka,Gopalganj,Tungipara,Patgati,8121
Bangladesh,Dhaka,Gopalganj,Tungipara,Tungipara,8120
Bangladesh,Dhaka,Jamalpur,Dewangonj,Dewangonj,2030
Bangladesh,Dhaka,Jamalpur,Dewangonj,Dewangonj S. Mills,2031
Bangladesh,Dhaka,Jamalpur,Islampur,Durmoot,2021
Bangladesh,Dhaka,Jamalpur,Islampur,Gilabari,2022
Bangladesh,Dhaka,Jamalpur,Islampur,Islampur,2020
Bangladesh,Dhaka,Jamalpur,Jamalpur,Jamalpur,2000
Bangladesh,Dhaka,Jamalpur,Jamalpur,Nandina,2001
Bangladesh,Dhaka,Jamalpur,Jamalpur,Narundi,2002
Bangladesh,Dhaka,Jamalpur,Malandah,Jamalpur,2011
Bangladesh,Dhaka,Jamalpur,Malandah,Mahmoodpur,2013
Bangladesh,Dhaka,Jamalpur,Malandah,Malancha,2012
Bangladesh,Dhaka,Jamalpur,Malandah,Malandah,2010
Bangladesh,Dhaka,Jamalpur,Mathargonj,Balijhuri,2041
Bangladesh,Dhaka,Jamalpur,Mathargonj,Mathargonj,2040
Bangladesh,Dhaka,Jamalpur,Shorishabari,Bausee,2052
Bangladesh,Dhaka,Jamalpur,Shorishabari,Gunerbari,2051
Bangladesh,Dhaka,Jamalpur,Shorishabari,Jagannath Ghat,2053
Bangladesh,Dhaka,Jamalpur,Shorishabari,Jamuna Sar Karkhana,2055
Bangladesh,Dhaka,Jamalpur,Shorishabari,Pingna,2054
Bangladesh,Dhaka,Jamalpur,Shorishabari,Shorishabari,2050
Bangladesh,Dhaka,Kishoreganj,Bajitpur,Bajitpur,2336
Bangladesh,Dhaka,Kishoreganj,Bajitpur,Laksmipur,2338
Bangladesh,Dhaka,Kishoreganj,Bajitpur,Sararchar,2337
Bangladesh,Dhaka,Kishoreganj,Bhairob,Bhairab,2350
Bangladesh,Dhaka,Kishoreganj,Hossenpur,Hossenpur,2320
Bangladesh,Dhaka,Kishoreganj,Itna,Itna,2390
Bangladesh,Dhaka,Kishoreganj,Karimganj,Karimganj,2310
Bangladesh,Dhaka,Kishoreganj,Katiadi,Gochhihata,2331
Bangladesh,Dhaka,Kishoreganj,Katiadi,Katiadi,2330
Bangladesh,Dhaka,Kishoreganj,Kishoreganj Sadar,Kishoreganj S.Mills,2301
Bangladesh,Dhaka,Kishoreganj,Kishoreganj Sadar,Kishoreganj Sadar,2300
Bangladesh,Dhaka,Kishoreganj,Kishoreganj Sadar,Maizhati,2302
Bangladesh,Dhaka,Kishoreganj,Kishoreganj Sadar,Nilganj,2303
Bangladesh,Dhaka,Kishoreganj,Kuliarchar,Chhoysuti,2341
Bangladesh,Dhaka,Kishoreganj,Kuliarchar,Kuliarchar,2340
Bangladesh,Dhaka,Kishoreganj,Mithamoin,Abdullahpur,2371
Bangladesh,Dhaka,Kishoreganj,Mithamoin,MIthamoin,2370
Bangladesh,Dhaka,Kishoreganj,Nikli,Nikli,2360
Bangladesh,Dhaka,Kishoreganj,Ostagram,Ostagram,2380
Bangladesh,Dhaka,Kishoreganj,Pakundia,Pakundia,2326
Bangladesh,Dhaka,Kishoreganj,Tarial,Tarial,2316
Bangladesh,Dhaka,Madaripur,Barhamganj,Bahadurpur,7932
Bangladesh,Dhaka,Madaripur,Barhamganj,Barhamganj,7930
Bangladesh,Dhaka,Madaripur,Barhamganj,Nilaksmibandar,7931
Bangladesh,Dhaka,Madaripur,Barhamganj,Umedpur,7933
Bangladesh,Dhaka,Madaripur,kalkini,Kalkini,7920
Bangladesh,Dhaka,Madaripur,kalkini,Sahabrampur,7921
Bangladesh,Dhaka,Madaripur,Madaripur Sadar,Charmugria,7901
Bangladesh,Dhaka,Madaripur,Madaripur Sadar,Habiganj,7903
Bangladesh,Dhaka,Madaripur,Madaripur Sadar,Kulpaddi,7902
Bangladesh,Dhaka,Madaripur,Madaripur Sadar,Madaripur Sadar,7900
Bangladesh,Dhaka,Madaripur,Madaripur Sadar,Mustafapur,7904
Bangladesh,Dhaka,Madaripur,Rajoir,Khalia,7911
Bangladesh,Dhaka,Madaripur,Rajoir,Rajoir,7910
Bangladesh,Dhaka,Manikganj,Doulatpur,Doulatpur,1860
Bangladesh,Dhaka,Manikganj,Gheor,Gheor,1840
Bangladesh,Dhaka,Manikganj,Lechhraganj,Jhitka,1831
Bangladesh,Dhaka,Manikganj,Lechhraganj,Lechhraganj,1830
Bangladesh,Dhaka,Manikganj,Manikganj Sadar,Barangail,1804
Bangladesh,Dhaka,Manikganj,Manikganj Sadar,Gorpara,1802
Bangladesh,Dhaka,Manikganj,Manikganj Sadar,Mahadebpur,1803
Bangladesh,Dhaka,Manikganj,Manikganj Sadar,Manikganj Bazar,1801
Bangladesh,Dhaka,Manikganj,Manikganj Sadar,Manikganj Sadar,1800
Bangladesh,Dhaka,Manikganj,Saturia,Baliati,1811
Bangladesh,Dhaka,Manikganj,Saturia,Saturia,1810
Bangladesh,Dhaka,Manikganj,Shibloya,Aricha,1851
Bangladesh,Dhaka,Manikganj,Shibloya,Shibaloy,1850
Bangladesh,Dhaka,Manikganj,Shibloya,Tewta,1852
Bangladesh,Dhaka,Manikganj,Shibloya,Uthli,1853
Bangladesh,Dhaka,Manikganj,Singari,Baira,1821
Bangladesh,Dhaka,Manikganj,Singari,joymantop,1822
Bangladesh,Dhaka,Manikganj,Singari,Singair,1820
Bangladesh,Dhaka,Munshiganj,Gajaria,Gajaria,1510
Bangladesh,Dhaka,Munshiganj,Gajaria,Hossendi,1511
Bangladesh,Dhaka,Munshiganj,Gajaria,Rasulpur,1512
Bangladesh,Dhaka,Munshiganj,Lohajong,Gouragonj,1334
Bangladesh,Dhaka,Munshiganj,Lohajong,Gouragonj,1534
Bangladesh,Dhaka,Munshiganj,Lohajong,Haldia SO,1532
Bangladesh,Dhaka,Munshiganj,Lohajong,Haridia,1333
Bangladesh,Dhaka,Munshiganj,Lohajong,Haridia DESO,1533
Bangladesh,Dhaka,Munshiganj,Lohajong,Korhati,1531
Bangladesh,Dhaka,Munshiganj,Lohajong,Lohajang,1530
Bangladesh,Dhaka,Munshiganj,Lohajong,Madini Mandal,1335
Bangladesh,Dhaka,Munshiganj,Lohajong,Medini Mandal EDSO,1535
Bangladesh,Dhaka,Munshiganj,Munshiganj Sadar,Kathakhali,1503
Bangladesh,Dhaka,Munshiganj,Munshiganj Sadar,Mirkadim,1502
Bangladesh,Dhaka,Munshiganj,Munshiganj Sadar,Munshiganj Sadar,1500
Bangladesh,Dhaka,Munshiganj,Munshiganj Sadar,Rikabibazar,1501
Bangladesh,Dhaka,Munshiganj,Sirajdikhan,Ichapur,1542
Bangladesh,Dhaka,Munshiganj,Sirajdikhan,Kola,1541
Bangladesh,Dhaka,Munshiganj,Sirajdikhan,Malkha Nagar,1543
Bangladesh,Dhaka,Munshiganj,Sirajdikhan,Shekher Nagar,1544
Bangladesh,Dhaka,Munshiganj,Sirajdikhan,Sirajdikhan,1540
Bangladesh,Dhaka,Munshiganj,Srinagar,Baghra,1557
Bangladesh,Dhaka,Munshiganj,Srinagar,Barikhal,1551
Bangladesh,Dhaka,Munshiganj,Srinagar,Bhaggyakul,1558
Bangladesh,Dhaka,Munshiganj,Srinagar,Hashara,1553
Bangladesh,Dhaka,Munshiganj,Srinagar,Kolapara,1554
Bangladesh,Dhaka,Munshiganj,Srinagar,Kumarbhog,1555
Bangladesh,Dhaka,Munshiganj,Srinagar,Mazpara,1552
Bangladesh,Dhaka,Munshiganj,Srinagar,Srinagar,1550
Bangladesh,Dhaka,Munshiganj,Srinagar,Vaggyakul SO,1556
Bangladesh,Dhaka,Munshiganj,Tangibari,Bajrajugini,1523
Bangladesh,Dhaka,Munshiganj,Tangibari,Baligao,1522
Bangladesh,Dhaka,Munshiganj,Tangibari,Betkahat,1521
Bangladesh,Dhaka,Munshiganj,Tangibari,Dighirpar,1525
Bangladesh,Dhaka,Munshiganj,Tangibari,Hasail,1524
Bangladesh,Dhaka,Munshiganj,Tangibari,Pura,1527
Bangladesh,Dhaka,Munshiganj,Tangibari,Pura EDSO,1526
Bangladesh,Dhaka,Munshiganj,Tangibari,Tangibari,1520
Bangladesh,Dhaka,Mymensingh,Bhaluka,Bhaluka,2240
Bangladesh,Dhaka,Mymensingh,Fulbaria,Fulbaria,2216
Bangladesh,Dhaka,Mymensingh,Gaforgaon,Duttarbazar,2234
Bangladesh,Dhaka,Mymensingh,Gaforgaon,Gaforgaon,2230
Bangladesh,Dhaka,Mymensingh,Gaforgaon,Kandipara,2233
Bangladesh,Dhaka,Mymensingh,Gaforgaon,Shibganj,2231
Bangladesh,Dhaka,Mymensingh,Gaforgaon,Usti,2232
Bangladesh,Dhaka,Mymensingh,Gouripur,Gouripur,2270
Bangladesh,Dhaka,Mymensingh,Gouripur,Ramgopalpur,2271
Bangladesh,Dhaka,Mymensingh,Haluaghat,Dhara,2261
Bangladesh,Dhaka,Mymensingh,Haluaghat,Haluaghat,2260
Bangladesh,Dhaka,Mymensingh,Haluaghat,Munshirhat,2262
Bangladesh,Dhaka,Mymensingh,Isshwargonj,Atharabari,2282
Bangladesh,Dhaka,Mymensingh,Isshwargonj,Isshwargonj,2280
Bangladesh,Dhaka,Mymensingh,Isshwargonj,Sohagi,2281
Bangladesh,Dhaka,Mymensingh,Muktagachha,Muktagachha,2210
Bangladesh,Dhaka,Mymensingh,Mymensingh Sadar,Agriculture Universi,2202
Bangladesh,Dhaka,Mymensingh,Mymensingh Sadar,Biddyaganj,2204
Bangladesh,Dhaka,Mymensingh,Mymensingh Sadar,Kawatkhali,2201
Bangladesh,Dhaka,Mymensingh,Mymensingh Sadar,Mymensingh Sadar,2200
Bangladesh,Dhaka,Mymensingh,Mymensingh Sadar,Pearpur,2205
Bangladesh,Dhaka,Mymensingh,Mymensingh Sadar,Shombhuganj,2203
Bangladesh,Dhaka,Mymensingh,Nandail,Gangail,2291
Bangladesh,Dhaka,Mymensingh,Nandail,Nandail,2290
Bangladesh,Dhaka,Mymensingh,Phulpur,Beltia,2251
Bangladesh,Dhaka,Mymensingh,Phulpur,Phulpur,2250
Bangladesh,Dhaka,Mymensingh,Phulpur,Tarakanda,2252
Bangladesh,Dhaka,Mymensingh,Trishal,Ahmadbad,2221
Bangladesh,Dhaka,Mymensingh,Trishal,Dhala,2223
Bangladesh,Dhaka,Mymensingh,Trishal,Ram Amritaganj,2222
Bangladesh,Dhaka,Mymensingh,Trishal,Trishal,2220
Bangladesh,Dhaka,Narayanganj,Araihazar,Araihazar,1450
Bangladesh,Dhaka,Narayanganj,Araihazar,Gopaldi,1451
Bangladesh,Dhaka,Narayanganj,Baidder Bazar,Baidder Bazar,1440
Bangladesh,Dhaka,Narayanganj,Baidder Bazar,Bara Nagar,1441
Bangladesh,Dhaka,Narayanganj,Baidder Bazar,Barodi,1442
Bangladesh,Dhaka,Narayanganj,Bandar,Bandar,1410
Bangladesh,Dhaka,Narayanganj,Bandar,BIDS,1413
Bangladesh,Dhaka,Narayanganj,Bandar,D.C Mills,1411
Bangladesh,Dhaka,Narayanganj,Bandar,Madanganj,1414
Bangladesh,Dhaka,Narayanganj,Bandar,Nabiganj,1412
Bangladesh,Dhaka,Narayanganj,Fatullah,Fatulla Bazar,1421
Bangladesh,Dhaka,Narayanganj,Fatullah,Fatullah,1420
Bangladesh,Dhaka,Narayanganj,Narayanganj Sadar,Narayanganj Sadar,1400
Bangladesh,Dhaka,Narayanganj,Rupganj,Bhulta,1462
Bangladesh,Dhaka,Narayanganj,Rupganj,Kanchan,1461
Bangladesh,Dhaka,Narayanganj,Rupganj,Murapara,1464
Bangladesh,Dhaka,Narayanganj,Rupganj,Nagri,1463
Bangladesh,Dhaka,Narayanganj,Rupganj,Rupganj,1460
Bangladesh,Dhaka,Narayanganj,Siddirganj,Adamjeenagar,1431
Bangladesh,Dhaka,Narayanganj,Siddirganj,LN Mills,1432
Bangladesh,Dhaka,Narayanganj,Siddirganj,Siddirganj,1430
Bangladesh,Dhaka,Narshingdi,Belabo,Belabo,1640
Bangladesh,Dhaka,Narshingdi,Monohordi,Hatirdia,1651
Bangladesh,Dhaka,Narshingdi,Monohordi,Katabaria,1652
Bangladesh,Dhaka,Narshingdi,Monohordi,Monohordi,1650
Bangladesh,Dhaka,Narshingdi,Narshingdi Sadar,Karimpur,1605
Bangladesh,Dhaka,Narshingdi,Narshingdi Sadar,Madhabdi,1604
Bangladesh,Dhaka,Narshingdi,Narshingdi Sadar,Narshingdi College,1602
Bangladesh,Dhaka,Narshingdi,Narshingdi Sadar,Narshingdi Sadar,1600
Bangladesh,Dhaka,Narshingdi,Narshingdi Sadar,Panchdona,1603
Bangladesh,Dhaka,Narshingdi,Narshingdi Sadar,UMC Jute Mills,1601
Bangladesh,Dhaka,Narshingdi,Palash,Char Sindhur,1612
Bangladesh,Dhaka,Narshingdi,Palash,Ghorashal,1613
Bangladesh,Dhaka,Narshingdi,Palash,Ghorashal Urea Facto,1611
Bangladesh,Dhaka,Narshingdi,Palash,Palash,1610
Bangladesh,Dhaka,Narshingdi,Raypura,Bazar Hasnabad,1631
Bangladesh,Dhaka,Narshingdi,Raypura,Radhaganj bazar,1632
Bangladesh,Dhaka,Narshingdi,Raypura,Raypura,1630
Bangladesh,Dhaka,Narshingdi,Shibpur,Shibpur,1620
Bangladesh,Dhaka,Netrakona, Susung Durgapur,Susnng Durgapur,2420
Bangladesh,Dhaka,Netrakona,Atpara,Atpara,2470
Bangladesh,Dhaka,Netrakona,Barhatta,Barhatta,2440
Bangladesh,Dhaka,Netrakona,Dharmapasha,Dharampasha,2450
Bangladesh,Dhaka,Netrakona,Dhobaura,Dhobaura,2416
Bangladesh,Dhaka,Netrakona,Dhobaura,Sakoai,2417
Bangladesh,Dhaka,Netrakona,Kalmakanda,Kalmakanda,2430
Bangladesh,Dhaka,Netrakona,Kendua,Kendua,2480
Bangladesh,Dhaka,Netrakona,Khaliajuri,Khaliajhri,2460
Bangladesh,Dhaka,Netrakona,Khaliajuri,Shaldigha,2462
Bangladesh,Dhaka,Netrakona,Madan,Madan,2490
Bangladesh,Dhaka,Netrakona,Moddhynagar,Moddoynagar,2456
Bangladesh,Dhaka,Netrakona,Mohanganj,Mohanganj,2446
Bangladesh,Dhaka,Netrakona,Netrakona Sadar,Baikherhati,2401
Bangladesh,Dhaka,Netrakona,Netrakona Sadar,Netrakona Sadar,2400
Bangladesh,Dhaka,Netrakona,Purbadhola,Jaria Jhanjhail,2412
Bangladesh,Dhaka,Netrakona,Purbadhola,Purbadhola,2410
Bangladesh,Dhaka,Netrakona,Purbadhola,Shamgonj,2411
Bangladesh,Dhaka,Rajbari,Baliakandi,Baliakandi,7730
Bangladesh,Dhaka,Rajbari,Baliakandi,Nalia,7731
Bangladesh,Dhaka,Rajbari,Pangsha,Mrigibazar,7723
Bangladesh,Dhaka,Rajbari,Pangsha,Pangsha,7720
Bangladesh,Dhaka,Rajbari,Pangsha,Ramkol,7721
Bangladesh,Dhaka,Rajbari,Pangsha,Ratandia,7722
Bangladesh,Dhaka,Rajbari,Rajbari Sadar,Goalanda,7710
Bangladesh,Dhaka,Rajbari,Rajbari Sadar,Khankhanapur,7711
Bangladesh,Dhaka,Rajbari,Rajbari Sadar,Rajbari Sadar,7700
Bangladesh,Dhaka,Shariatpur,Bhedorganj,Bhedorganj,8030
Bangladesh,Dhaka,Shariatpur,Damudhya,Damudhya,8040
Bangladesh,Dhaka,Shariatpur,Gosairhat,Gosairhat,8050
Bangladesh,Dhaka,Shariatpur,Jajira,Jajira,8010
Bangladesh,Dhaka,Shariatpur,Naria,Bhozeshwar,8021
Bangladesh,Dhaka,Shariatpur,Naria,Gharisar,8022
Bangladesh,Dhaka,Shariatpur,Naria,Kartikpur,8024
Bangladesh,Dhaka,Shariatpur,Naria,Naria,8020
Bangladesh,Dhaka,Shariatpur,Naria,Upshi,8023
Bangladesh,Dhaka,Shariatpur,Shariatpur Sadar,Angaria,8001
Bangladesh,Dhaka,Shariatpur,Shariatpur Sadar,Chikandi,8002
Bangladesh,Dhaka,Shariatpur,Shariatpur Sadar,Shariatpur Sadar,8000
Bangladesh,Dhaka,Sherpur,Bakshigonj,Bakshigonj,2140
Bangladesh,Dhaka,Sherpur,Jhinaigati,Jhinaigati,2120
Bangladesh,Dhaka,Sherpur,Nakla,Gonopaddi,2151
Bangladesh,Dhaka,Sherpur,Nakla,Nakla,2150
Bangladesh,Dhaka,Sherpur,Nalitabari,Hatibandha,2111
Bangladesh,Dhaka,Sherpur,Nalitabari,Nalitabari,2110
Bangladesh,Dhaka,Sherpur,Sherpur Shadar,Sherpur Shadar,2100
Bangladesh,Dhaka,Sherpur,Shribardi,Shribardi,2130
Bangladesh,Dhaka,Tangail,Basail,Basail,1920
Bangladesh,Dhaka,Tangail,Bhuapur,Bhuapur,1960
Bangladesh,Dhaka,Tangail,Delduar,Delduar,1910
Bangladesh,Dhaka,Tangail,Delduar,Elasin,1913
Bangladesh,Dhaka,Tangail,Delduar,Hinga Nagar,1914
Bangladesh,Dhaka,Tangail,Delduar,Jangalia,1911
Bangladesh,Dhaka,Tangail,Delduar,Lowhati,1915
Bangladesh,Dhaka,Tangail,Delduar,Patharail,1912
Bangladesh,Dhaka,Tangail,Ghatail,D. Pakutia,1982
Bangladesh,Dhaka,Tangail,Ghatail,Dhalapara,1983
Bangladesh,Dhaka,Tangail,Ghatail,Ghatial,1980
Bangladesh,Dhaka,Tangail,Ghatail,Lohani,1984
Bangladesh,Dhaka,Tangail,Ghatail,Zahidganj,1981
Bangladesh,Dhaka,Tangail,Gopalpur,Gopalpur,1990
Bangladesh,Dhaka,Tangail,Gopalpur,Hemnagar,1992
Bangladesh,Dhaka,Tangail,Gopalpur,Jhowail,1991
Bangladesh,Dhaka,Tangail,Kalihati,Ballabazar,1973
Bangladesh,Dhaka,Tangail,Kalihati,Elinga,1974
Bangladesh,Dhaka,Tangail,Kalihati,Kalihati,1970
Bangladesh,Dhaka,Tangail,Kalihati,Nagarbari,1977
Bangladesh,Dhaka,Tangail,Kalihati,Nagarbari SO,1976
Bangladesh,Dhaka,Tangail,Kalihati,Nagbari,1972
Bangladesh,Dhaka,Tangail,Kalihati,Palisha,1975
Bangladesh,Dhaka,Tangail,Kalihati,Rajafair,1971
Bangladesh,Dhaka,Tangail,Kashkaolia,Kashkawlia,1930
Bangladesh,Dhaka,Tangail,Madhupur,Dhobari,1997
Bangladesh,Dhaka,Tangail,Madhupur,Madhupur,1996
Bangladesh,Dhaka,Tangail,Mirzapur,Gorai,1941
Bangladesh,Dhaka,Tangail,Mirzapur,Jarmuki,1944
Bangladesh,Dhaka,Tangail,Mirzapur,M.C. College,1942
Bangladesh,Dhaka,Tangail,Mirzapur,Mirzapur,1940
Bangladesh,Dhaka,Tangail,Mirzapur,Mohera,1945
Bangladesh,Dhaka,Tangail,Mirzapur,Warri paikpara,1943
Bangladesh,Dhaka,Tangail,Nagarpur,Dhuburia,1937
Bangladesh,Dhaka,Tangail,Nagarpur,Nagarpur,1936
Bangladesh,Dhaka,Tangail,Nagarpur,Salimabad,1938
Bangladesh,Dhaka,Tangail,Sakhipur,Kochua,1951
Bangladesh,Dhaka,Tangail,Sakhipur,Sakhipur,1950
Bangladesh,Dhaka,Tangail,Tangail Sadar,Kagmari,1901
Bangladesh,Dhaka,Tangail,Tangail Sadar,Korotia,1903
Bangladesh,Dhaka,Tangail,Tangail Sadar,Purabari,1904
Bangladesh,Dhaka,Tangail,Tangail Sadar,Santosh,1902
Bangladesh,Dhaka,Tangail,Tangail Sadar,Tangail Sadar,1900
Bangladesh,Khulna,Bagherhat,Bagerhat Sadar,Bagerhat Sadar,9300
Bangladesh,Khulna,Bagherhat,Bagerhat Sadar,P.C College,9301
Bangladesh,Khulna,Bagherhat,Bagerhat Sadar,Rangdia,9302
Bangladesh,Khulna,Bagherhat,Chalna Ankorage,Chalna Ankorage,9350
Bangladesh,Khulna,Bagherhat,Chalna Ankorage,Mongla Port,9351
Bangladesh,Khulna,Bagherhat,Chitalmari,Barabaria,9361
Bangladesh,Khulna,Bagherhat,Chitalmari,Chitalmari,9360
Bangladesh,Khulna,Bagherhat,Fakirhat,Bhanganpar Bazar,9372
Bangladesh,Khulna,Bagherhat,Fakirhat,Fakirhat,9370
Bangladesh,Khulna,Bagherhat,Fakirhat,Mansa,9371
Bangladesh,Khulna,Bagherhat,Kachua UPO,Kachua,9310
Bangladesh,Khulna,Bagherhat,Kachua UPO,Sonarkola,9311
Bangladesh,Khulna,Bagherhat,Mollahat,Charkulia,9383
Bangladesh,Khulna,Bagherhat,Mollahat,Dariala,9382
Bangladesh,Khulna,Bagherhat,Mollahat,Kahalpur,9381
Bangladesh,Khulna,Bagherhat,Mollahat,Mollahat,9380
Bangladesh,Khulna,Bagherhat,Mollahat,Nagarkandi,9384
Bangladesh,Khulna,Bagherhat,Mollahat,Pak Gangni,9385
Bangladesh,Khulna,Bagherhat,Morelganj,Morelganj,9320
Bangladesh,Khulna,Bagherhat,Morelganj,Sannasi Bazar,9321
Bangladesh,Khulna,Bagherhat,Morelganj,Telisatee,9322
Bangladesh,Khulna,Bagherhat,Rampal,Foylahat,9341
Bangladesh,Khulna,Bagherhat,Rampal,Gourambha,9343
Bangladesh,Khulna,Bagherhat,Rampal,Rampal,9340
Bangladesh,Khulna,Bagherhat,Rampal,Sonatunia,9342
Bangladesh,Khulna,Bagherhat,Rayenda,Rayenda,9330
Bangladesh,Khulna,Chuadanga,Alamdanga,Alamdanga,7210
Bangladesh,Khulna,Chuadanga,Alamdanga,Hardi,7211
Bangladesh,Khulna,Chuadanga,Chuadanga Sadar,Chuadanga Sadar,7200
Bangladesh,Khulna,Chuadanga,Chuadanga Sadar,Munshiganj,7201
Bangladesh,Khulna,Chuadanga,Damurhuda,Andulbaria,7222
Bangladesh,Khulna,Chuadanga,Damurhuda,Damurhuda,7220
Bangladesh,Khulna,Chuadanga,Damurhuda,Darshana,7221
Bangladesh,Khulna,Chuadanga,Doulatganj,Doulatganj,7230
Bangladesh,Khulna,Jessore,Bagharpara,Bagharpara,7470
Bangladesh,Khulna,Jessore,Bagharpara,Gouranagar,7471
Bangladesh,Khulna,Jessore,Chaugachha,Chougachha,7410
Bangladesh,Khulna,Jessore,Jessore Sadar,Basundia,7406
Bangladesh,Khulna,Jessore,Jessore Sadar,Chanchra,7402
Bangladesh,Khulna,Jessore,Jessore Sadar,Churamankathi,7407
Bangladesh,Khulna,Jessore,Jessore Sadar,Jessore Airbach,7404
Bangladesh,Khulna,Jessore,Jessore Sadar,Jessore canttonment,7403
Bangladesh,Khulna,Jessore,Jessore Sadar,Jessore Sadar,7400
Bangladesh,Khulna,Jessore,Jessore Sadar,Jessore Upa-Shahar,7401
Bangladesh,Khulna,Jessore,Jessore Sadar,Rupdia,7405
Bangladesh,Khulna,Jessore,Jhikargachha,Jhikargachha,7420
Bangladesh,Khulna,Jessore,Keshabpur,Keshobpur,7450
Bangladesh,Khulna,Jessore,Monirampur,Monirampur,7440
Bangladesh,Khulna,Jessore,Noapara,Bhugilhat,7462
Bangladesh,Khulna,Jessore,Noapara,Noapara,7460
Bangladesh,Khulna,Jessore,Noapara,Rajghat,7461
Bangladesh,Khulna,Jessore,Sarsa,Bag Achra,7433
Bangladesh,Khulna,Jessore,Sarsa,Benapole,7431
Bangladesh,Khulna,Jessore,Sarsa,Jadabpur,7432
Bangladesh,Khulna,Jessore,Sarsa,Sarsa,7430
Bangladesh,Khulna,Jinaidaha,Harinakundu,Harinakundu,7310
Bangladesh,Khulna,Jinaidaha,Jinaidaha Sadar,Jinaidaha Cadet College,7301
Bangladesh,Khulna,Jinaidaha,Jinaidaha Sadar,Jinaidaha Sadar,7300
Bangladesh,Khulna,Jinaidaha,Kotchandpur,Kotchandpur,7330
Bangladesh,Khulna,Jinaidaha,Maheshpur,Maheshpur,7340
Bangladesh,Khulna,Jinaidaha,Naldanga,Hatbar Bazar,7351
Bangladesh,Khulna,Jinaidaha,Naldanga,Naldanga,7350
Bangladesh,Khulna,Jinaidaha,Shailakupa,Kumiradaha,7321
Bangladesh,Khulna,Jinaidaha,Shailakupa,Shailakupa,7320
Bangladesh,Khulna,Khulna,Alaipur,Alaipur,9240
Bangladesh,Khulna,Khulna,Alaipur,Belphulia,9242
Bangladesh,Khulna,Khulna,Alaipur,Rupsha,9241
Bangladesh,Khulna,Khulna,Batiaghat,Batiaghat,9260
Bangladesh,Khulna,Khulna,Batiaghat,Surkalee,9261
Bangladesh,Khulna,Khulna,Chalna Bazar,Bajua,9272
Bangladesh,Khulna,Khulna,Chalna Bazar,Chalna Bazar,9270
Bangladesh,Khulna,Khulna,Chalna Bazar,Dakup,9271
Bangladesh,Khulna,Khulna,Chalna Bazar,Nalian,9273
Bangladesh,Khulna,Khulna,Digalia,Chandni Mahal,9221
Bangladesh,Khulna,Khulna,Digalia,Digalia,9220
Bangladesh,Khulna,Khulna,Digalia,Gazirhat,9224
Bangladesh,Khulna,Khulna,Digalia,Ghoshghati,9223
Bangladesh,Khulna,Khulna,Digalia,Senhati,9222
Bangladesh,Khulna,Khulna,Khulna Sadar,Atra Shilpa Area,9207
Bangladesh,Khulna,Khulna,Khulna Sadar,BIT Khulna,9203
Bangladesh,Khulna,Khulna,Khulna Sadar,Doulatpur,9202
Bangladesh,Khulna,Khulna,Khulna Sadar,Jahanabad Canttonmen,9205
Bangladesh,Khulna,Khulna,Khulna Sadar,Khula Sadar,9100
Bangladesh,Khulna,Khulna,Khulna Sadar,Khulna G.P.O,9000
Bangladesh,Khulna,Khulna,Khulna Sadar,Khulna Shipyard,9201
Bangladesh,Khulna,Khulna,Khulna Sadar,Khulna University,9208
Bangladesh,Khulna,Khulna,Khulna Sadar,Siramani,9204
Bangladesh,Khulna,Khulna,Khulna Sadar,Sonali Jute Mills,9206
Bangladesh,Khulna,Khulna,Madinabad,Amadee,9291
Bangladesh,Khulna,Khulna,Madinabad,Madinabad,9290
Bangladesh,Khulna,Khulna,Paikgachha,Chandkhali,9284
Bangladesh,Khulna,Khulna,Paikgachha,Garaikhali,9285
Bangladesh,Khulna,Khulna,Paikgachha,Godaipur,9281
Bangladesh,Khulna,Khulna,Paikgachha,Kapilmoni,9282
Bangladesh,Khulna,Khulna,Paikgachha,Katipara,9283
Bangladesh,Khulna,Khulna,Paikgachha,Paikgachha,9280
Bangladesh,Khulna,Khulna,Phultala,Phultala,9210
Bangladesh,Khulna,Khulna,Sajiara,Chuknagar,9252
Bangladesh,Khulna,Khulna,Sajiara,Ghonabanda,9251
Bangladesh,Khulna,Khulna,Sajiara,Sajiara,9250
Bangladesh,Khulna,Khulna,Sajiara,Shahapur,9253
Bangladesh,Khulna,Khulna,Terakhada,Pak Barasat,9231
Bangladesh,Khulna,Khulna,Terakhada,Terakhada,9230
Bangladesh,Khulna,Kustia,Bheramara,Allardarga,7042
Bangladesh,Khulna,Kustia,Bheramara,Bheramara,7040
Bangladesh,Khulna,Kustia,Bheramara,Ganges Bheramara,7041
Bangladesh,Khulna,Kustia,Janipur,Janipur,7020
Bangladesh,Khulna,Kustia,Janipur,Khoksa,7021
Bangladesh,Khulna,Kustia,Kumarkhali,Kumarkhali,7010
Bangladesh,Khulna,Kustia,Kumarkhali,Panti,7011
Bangladesh,Khulna,Kustia,Kustia Sadar,Islami University,7003
Bangladesh,Khulna,Kustia,Kustia Sadar,Jagati,7002
Bangladesh,Khulna,Kustia,Kustia Sadar,Kushtia Mohini,7001
Bangladesh,Khulna,Kustia,Kustia Sadar,Kustia Sadar,7000
Bangladesh,Khulna,Kustia,Mirpur,Amla Sadarpur,7032
Bangladesh,Khulna,Kustia,Mirpur,Mirpur,7030
Bangladesh,Khulna,Kustia,Mirpur,Poradaha,7031
Bangladesh,Khulna,Kustia,Rafayetpur,Khasmathurapur,7052
Bangladesh,Khulna,Kustia,Rafayetpur,Rafayetpur,7050
Bangladesh,Khulna,Kustia,Rafayetpur,Taragunia,7051
Bangladesh,Khulna,Magura,Arpara,Arpara,7620
Bangladesh,Khulna,Magura,Magura Sadar,Magura Sadar,7600
Bangladesh,Khulna,Magura,Mohammadpur,Binodpur,7631
Bangladesh,Khulna,Magura,Mohammadpur,Mohammadpur,7630
Bangladesh,Khulna,Magura,Mohammadpur,Nahata,7632
Bangladesh,Khulna,Magura,Shripur,Langalbadh,7611
Bangladesh,Khulna,Magura,Shripur,Nachol,7612
Bangladesh,Khulna,Magura,Shripur,Shripur,7610
Bangladesh,Khulna,Meherpur,Gangni,Gangni,7110
Bangladesh,Khulna,Meherpur,Meherpur Sadar,Amjhupi,7101
Bangladesh,Khulna,Meherpur,Meherpur Sadar,Amjhupi,7152
Bangladesh,Khulna,Meherpur,Meherpur Sadar,Meherpur Sadar,7100
Bangladesh,Khulna,Meherpur,Meherpur Sadar,Mujib Nagar Complex,7102
Bangladesh,Khulna,Narail,Kalia,Kalia,7520
Bangladesh,Khulna,Narail,Laxmipasha,Baradia,7514
Bangladesh,Khulna,Narail,Laxmipasha,Itna,7512
Bangladesh,Khulna,Narail,Laxmipasha,Laxmipasha,7510
Bangladesh,Khulna,Narail,Laxmipasha,Lohagora,7511
Bangladesh,Khulna,Narail,Laxmipasha,Naldi,7513
Bangladesh,Khulna,Narail,Mohajan,Mohajan,7521
Bangladesh,Khulna,Narail,Narail Sadar,Narail Sadar,7500
Bangladesh,Khulna,Narail,Narail Sadar,Ratanganj,7501
Bangladesh,Khulna,Satkhira,Ashashuni,Ashashuni,9460
Bangladesh,Khulna,Satkhira,Ashashuni,Baradal,9461
Bangladesh,Khulna,Satkhira,Debbhata,Debbhata,9430
Bangladesh,Khulna,Satkhira,Debbhata,Gurugram,9431
Bangladesh,Khulna,Satkhira,kalaroa,Chandanpur,9415
Bangladesh,Khulna,Satkhira,kalaroa,Hamidpur,9413
Bangladesh,Khulna,Satkhira,kalaroa,Jhaudanga,9412
Bangladesh,Khulna,Satkhira,kalaroa,kalaroa,9410
Bangladesh,Khulna,Satkhira,kalaroa,Khordo,9414
Bangladesh,Khulna,Satkhira,kalaroa,Murarikati,9411
Bangladesh,Khulna,Satkhira,Kaliganj UPO,Kaliganj UPO,9440
Bangladesh,Khulna,Satkhira,Kaliganj UPO,Nalta Mubaroknagar,9441
Bangladesh,Khulna,Satkhira,Kaliganj UPO,Ratanpur ,9442
Bangladesh,Khulna,Satkhira,Nakipur,Buri Goalini,9453
Bangladesh,Khulna,Satkhira,Nakipur,Gabura,9454
Bangladesh,Khulna,Satkhira,Nakipur,Habinagar,9455
Bangladesh,Khulna,Satkhira,Nakipur,Nakipur,9450
Bangladesh,Khulna,Satkhira,Nakipur,Naobeki,9452
Bangladesh,Khulna,Satkhira,Nakipur,Noornagar,9451
Bangladesh,Khulna,Satkhira,Satkhira Sadar,Budhhat,9403
Bangladesh,Khulna,Satkhira,Satkhira Sadar,Gunakar kati,9402
Bangladesh,Khulna,Satkhira,Satkhira Sadar,Satkhira Islamia Acc,9401
Bangladesh,Khulna,Satkhira,Satkhira Sadar,Satkhira Sadar,9400
Bangladesh,Khulna,Satkhira,Taala,Patkelghata,9421
Bangladesh,Khulna,Satkhira,Taala,Taala,9420
Bangladesh,Rajshahi,Bogra,Alamdighi,Adamdighi,5890
Bangladesh,Rajshahi,Bogra,Alamdighi,Nasharatpur,5892
Bangladesh,Rajshahi,Bogra,Alamdighi,Santahar,5891
Bangladesh,Rajshahi,Bogra,Bogra Sadar,Bogra Canttonment,5801
Bangladesh,Rajshahi,Bogra,Bogra Sadar,Bogra Sadar,5800
Bangladesh,Rajshahi,Bogra,Dhunat,Dhunat,5850
Bangladesh,Rajshahi,Bogra,Dhunat,Gosaibari,5851
Bangladesh,Rajshahi,Bogra,Dupchachia,Dupchachia,5880
Bangladesh,Rajshahi,Bogra,Dupchachia,Talora,5881
Bangladesh,Rajshahi,Bogra,Gabtoli,Gabtoli,5820
Bangladesh,Rajshahi,Bogra,Gabtoli,Sukhanpukur,5821
Bangladesh,Rajshahi,Bogra,Kahalu,Kahalu,5870
Bangladesh,Rajshahi,Bogra,Nandigram,Nandigram,5860
Bangladesh,Rajshahi,Bogra,Sariakandi,Chandan Baisha,5831
Bangladesh,Rajshahi,Bogra,Sariakandi,Sariakandi,5830
Bangladesh,Rajshahi,Bogra,Sherpur,Chandaikona,5841
Bangladesh,Rajshahi,Bogra,Sherpur,Palli Unnyan Accadem,5842
Bangladesh,Rajshahi,Bogra,Sherpur,Sherpur,5840
Bangladesh,Rajshahi,Bogra,Shibganj,Shibganj,5810
Bangladesh,Rajshahi,Bogra,Sonatola,Sonatola,5826
Bangladesh,Rajshahi,Chapinawabganj,Bholahat,Bholahat,6330
Bangladesh,Rajshahi,Chapinawabganj,Chapinawabganj Sadar,Amnura,6303
Bangladesh,Rajshahi,Chapinawabganj,Chapinawabganj Sadar,Chapinawbganj Sadar,6300
Bangladesh,Rajshahi,Chapinawabganj,Chapinawabganj Sadar,Rajarampur,6301
Bangladesh,Rajshahi,Chapinawabganj,Chapinawabganj Sadar,Ramchandrapur,6302
Bangladesh,Rajshahi,Chapinawabganj,Nachol,Mandumala,6311
Bangladesh,Rajshahi,Chapinawabganj,Nachol,Nachol,6310
Bangladesh,Rajshahi,Chapinawabganj,Rohanpur,Gomashtapur,6321
Bangladesh,Rajshahi,Chapinawabganj,Rohanpur,Rohanpur,6320
Bangladesh,Rajshahi,Chapinawabganj,Shibganj U.P.O,Kansart,6341
Bangladesh,Rajshahi,Chapinawabganj,Shibganj U.P.O,Manaksha,6342
Bangladesh,Rajshahi,Chapinawabganj,Shibganj U.P.O,Shibganj U.P.O,6340
Bangladesh,Rajshahi,Joypurhat,Akkelpur,Akklepur,5940
Bangladesh,Rajshahi,Joypurhat,Akkelpur,jamalganj,5941
Bangladesh,Rajshahi,Joypurhat,Akkelpur,Tilakpur,5942
Bangladesh,Rajshahi,Joypurhat,Joypurhat Sadar,Joypurhat Sadar,5900
Bangladesh,Rajshahi,Joypurhat,kalai,kalai,5930
Bangladesh,Rajshahi,Joypurhat,Khetlal,Khetlal,5920
Bangladesh,Rajshahi,Joypurhat,panchbibi,Panchbibi,5910
Bangladesh,Rajshahi,Naogaon,Ahsanganj,Ahsanganj,6596
Bangladesh,Rajshahi,Naogaon,Ahsanganj,Bandai,6597
Bangladesh,Rajshahi,Naogaon,Badalgachhi,Badalgachhi,6570
Bangladesh,Rajshahi,Naogaon,Dhamuirhat,Dhamuirhat,6580
Bangladesh,Rajshahi,Naogaon,Mahadebpur,Mahadebpur,6530
Bangladesh,Rajshahi,Naogaon,Naogaon Sadar,Naogaon Sadar,6500
Bangladesh,Rajshahi,Naogaon,Niamatpur,Niamatpur,6520
Bangladesh,Rajshahi,Naogaon,Nitpur,Nitpur,6550
Bangladesh,Rajshahi,Naogaon,Nitpur,Panguria,6552
Bangladesh,Rajshahi,Naogaon,Nitpur,Porsa,6551
Bangladesh,Rajshahi,Naogaon,Patnitala,Patnitala,6540
Bangladesh,Rajshahi,Naogaon,Prasadpur,Balihar,6512
Bangladesh,Rajshahi,Naogaon,Prasadpur,Manda,6511
Bangladesh,Rajshahi,Naogaon,Prasadpur,Prasadpur,6510
Bangladesh,Rajshahi,Naogaon,Raninagar,Kashimpur,6591
Bangladesh,Rajshahi,Naogaon,Raninagar,Raninagar,6590
Bangladesh,Rajshahi,Naogaon,Sapahar,Moduhil,6561
Bangladesh,Rajshahi,Naogaon,Sapahar,Sapahar,6560
Bangladesh,Rajshahi,Natore,Gopalpur UPO,Abdulpur,6422
Bangladesh,Rajshahi,Natore,Gopalpur UPO,Gopalpur U.P.O,6420
Bangladesh,Rajshahi,Natore,Gopalpur UPO,Lalpur S.O,6421
Bangladesh,Rajshahi,Natore,Harua,Baraigram,6432
Bangladesh,Rajshahi,Natore,Harua,Dayarampur,6431
Bangladesh,Rajshahi,Natore,Harua,Harua,6430
Bangladesh,Rajshahi,Natore,Hatgurudaspur,Hatgurudaspur,6440
Bangladesh,Rajshahi,Natore,Laxman,Laxman,6410
Bangladesh,Rajshahi,Natore,Natore Sadar,Baiddyabal Gharia,6402
Bangladesh,Rajshahi,Natore,Natore Sadar,Digapatia,6401
Bangladesh,Rajshahi,Natore,Natore Sadar,Madhnagar,6403
Bangladesh,Rajshahi,Natore,Natore Sadar,Natore Sadar,6400
Bangladesh,Rajshahi,Natore,Singra,Singra,6450
Bangladesh,Rajshahi,Pabna,Banwarinagar,Banwarinagar,6650
Bangladesh,Rajshahi,Pabna,Bera,Bera,6680
Bangladesh,Rajshahi,Pabna,Bera,Kashinathpur,6682
Bangladesh,Rajshahi,Pabna,Bera,Nakalia,6681
Bangladesh,Rajshahi,Pabna,Bera,Puran Bharenga,6683
Bangladesh,Rajshahi,Pabna,Bhangura,Bhangura,6640
Bangladesh,Rajshahi,Pabna,Chatmohar,Chatmohar,6630
Bangladesh,Rajshahi,Pabna,Debottar,Debottar,6610
Bangladesh,Rajshahi,Pabna,Ishwardi,Dhapari,6621
Bangladesh,Rajshahi,Pabna,Ishwardi,Ishwardi,6620
Bangladesh,Rajshahi,Pabna,Ishwardi,Pakshi,6622
Bangladesh,Rajshahi,Pabna,Ishwardi,Rajapur,6623
Bangladesh,Rajshahi,Pabna,Pabna Sadar,Hamayetpur,6602
Bangladesh,Rajshahi,Pabna,Pabna Sadar,Kaliko Cotton Mills,6601
Bangladesh,Rajshahi,Pabna,Pabna Sadar,Pabna Sadar,6600
Bangladesh,Rajshahi,Pabna,Sathia,Sathia,6670
Bangladesh,Rajshahi,Pabna,Sujanagar,Sagarkandi,6661
Bangladesh,Rajshahi,Pabna,Sujanagar,Sujanagar,6660
Bangladesh,Rajshahi,Rajshahi,Bagha,Arani,6281
Bangladesh,Rajshahi,Rajshahi,Bagha,Bagha,6280
Bangladesh,Rajshahi,Rajshahi,Bhabaniganj,Bhabaniganj,6250
Bangladesh,Rajshahi,Rajshahi,Bhabaniganj,Taharpur,6251
Bangladesh,Rajshahi,Rajshahi,Charghat,Charghat,6270
Bangladesh,Rajshahi,Rajshahi,Charghat,Sarda,6271
Bangladesh,Rajshahi,Rajshahi,Durgapur,Durgapur,6240
Bangladesh,Rajshahi,Rajshahi,Godagari,Godagari,6290
Bangladesh,Rajshahi,Rajshahi,Godagari,Premtoli,6291
Bangladesh,Rajshahi,Rajshahi,Khod Mohanpur,Khodmohanpur,6220
Bangladesh,Rajshahi,Rajshahi,Lalitganj,Lalitganj,6210
Bangladesh,Rajshahi,Rajshahi,Lalitganj,Rajshahi Sugar Mills,6211
Bangladesh,Rajshahi,Rajshahi,Lalitganj,Shyampur,6212
Bangladesh,Rajshahi,Rajshahi,Putia,Putia,6260
Bangladesh,Rajshahi,Rajshahi,Rajshahi Sadar,Binodpur Bazar,6206
Bangladesh,Rajshahi,Rajshahi,Rajshahi Sadar,Ghuramara,6100
Bangladesh,Rajshahi,Rajshahi,Rajshahi Sadar,Kazla,6204
Bangladesh,Rajshahi,Rajshahi,Rajshahi Sadar,Rajshahi Canttonment,6202
Bangladesh,Rajshahi,Rajshahi,Rajshahi Sadar,Rajshahi Court,6201
Bangladesh,Rajshahi,Rajshahi,Rajshahi Sadar,Rajshahi Sadar,6000
Bangladesh,Rajshahi,Rajshahi,Rajshahi Sadar,Rajshahi University,6205
Bangladesh,Rajshahi,Rajshahi,Rajshahi Sadar,Sapura,6203
Bangladesh,Rajshahi,Rajshahi,Tanor,Tanor,6230
Bangladesh,Rajshahi,Sirajganj,Baiddya Jam Toil,Baiddya Jam Toil,6730
Bangladesh,Rajshahi,Sirajganj,Belkuchi,Belkuchi,6740
Bangladesh,Rajshahi,Sirajganj,Belkuchi,Enayetpur,6751
Bangladesh,Rajshahi,Sirajganj,Belkuchi,Rajapur,6742
Bangladesh,Rajshahi,Sirajganj,Belkuchi,Sohagpur,6741
Bangladesh,Rajshahi,Sirajganj,Belkuchi,Sthal,6752
Bangladesh,Rajshahi,Sirajganj,Dhangora,Dhangora,6720
Bangladesh,Rajshahi,Sirajganj,Dhangora,Malonga,6721
Bangladesh,Rajshahi,Sirajganj,Kazipur,Gandail,6712
Bangladesh,Rajshahi,Sirajganj,Kazipur,Kazipur,6710
Bangladesh,Rajshahi,Sirajganj,Kazipur,Shuvgachha,6711
Bangladesh,Rajshahi,Sirajganj,Shahjadpur,Jamirta,6772
Bangladesh,Rajshahi,Sirajganj,Shahjadpur,Kaijuri,6773
Bangladesh,Rajshahi,Sirajganj,Shahjadpur,Porjana,6771
Bangladesh,Rajshahi,Sirajganj,Shahjadpur,Shahjadpur,6770
Bangladesh,Rajshahi,Sirajganj,Sirajganj Sadar,Raipur,6701
Bangladesh,Rajshahi,Sirajganj,Sirajganj Sadar,Rashidabad,6702
Bangladesh,Rajshahi,Sirajganj,Sirajganj Sadar,Sirajganj Sadar,6700
Bangladesh,Rajshahi,Sirajganj,Tarash,Tarash,6780
Bangladesh,Rajshahi,Sirajganj,Ullapara,Lahiri Mohanpur,6762
Bangladesh,Rajshahi,Sirajganj,Ullapara,Salap,6763
Bangladesh,Rajshahi,Sirajganj,Ullapara,Ullapara,6760
Bangladesh,Rajshahi,Sirajganj,Ullapara,Ullapara R.S,6761
Bangladesh,Sylhet,Hobiganj,Azmireeganj,Azmireeganj,3360
Bangladesh,Sylhet,Hobiganj,Bahubal,Bahubal,3310
Bangladesh,Sylhet,Hobiganj,Baniachang,Baniachang,3350
Bangladesh,Sylhet,Hobiganj,Baniachang,Jatrapasha,3351
Bangladesh,Sylhet,Hobiganj,Baniachang,Kadirganj,3352
Bangladesh,Sylhet,Hobiganj,Chunarughat,Chandpurbagan,3321
Bangladesh,Sylhet,Hobiganj,Chunarughat,Chunarughat,3320
Bangladesh,Sylhet,Hobiganj,Chunarughat,Narapati,3322
Bangladesh,Sylhet,Hobiganj,Hobiganj Sadar,Gopaya,3302
Bangladesh,Sylhet,Hobiganj,Hobiganj Sadar,Hobiganj Sadar,3300
Bangladesh,Sylhet,Hobiganj,Hobiganj Sadar,Shaestaganj,3301
Bangladesh,Sylhet,Hobiganj,Kalauk,Kalauk,3340
Bangladesh,Sylhet,Hobiganj,Kalauk,Lakhai,3341
Bangladesh,Sylhet,Hobiganj,Madhabpur,Itakhola,3331
Bangladesh,Sylhet,Hobiganj,Madhabpur,Madhabpur,3330
Bangladesh,Sylhet,Hobiganj,Madhabpur,Saihamnagar,3333
Bangladesh,Sylhet,Hobiganj,Madhabpur,Shahajibazar,3332
Bangladesh,Sylhet,Hobiganj,Nabiganj,Digalbak,3373
Bangladesh,Sylhet,Hobiganj,Nabiganj,Golduba,3372
Bangladesh,Sylhet,Hobiganj,Nabiganj,Goplarbazar,3371
Bangladesh,Sylhet,Hobiganj,Nabiganj,Inathganj,3374
Bangladesh,Sylhet,Hobiganj,Nabiganj,Nabiganj,3370
Bangladesh,Sylhet,Moulvibazar,Baralekha,Baralekha,3250
Bangladesh,Sylhet,Moulvibazar,Baralekha,Dhakkhinbag,3252
Bangladesh,Sylhet,Moulvibazar,Baralekha,Juri,3251
Bangladesh,Sylhet,Moulvibazar,Baralekha,Purbashahabajpur,3253
Bangladesh,Sylhet,Moulvibazar,Kamalganj,Kamalganj,3220
Bangladesh,Sylhet,Moulvibazar,Kamalganj,Keramatnaga,3221
Bangladesh,Sylhet,Moulvibazar,Kamalganj,Munshibazar,3224
Bangladesh,Sylhet,Moulvibazar,Kamalganj,Patrakhola,3222
Bangladesh,Sylhet,Moulvibazar,Kamalganj,Shamsher Nagar,3223
Bangladesh,Sylhet,Moulvibazar,Kulaura,Baramchal,3237
Bangladesh,Sylhet,Moulvibazar,Kulaura,Kajaldhara,3234
Bangladesh,Sylhet,Moulvibazar,Kulaura,Karimpur,3235
Bangladesh,Sylhet,Moulvibazar,Kulaura,Kulaura,3230
Bangladesh,Sylhet,Moulvibazar,Kulaura,Langla,3232
Bangladesh,Sylhet,Moulvibazar,Kulaura,Prithimpasha,3233
Bangladesh,Sylhet,Moulvibazar,Kulaura,Tillagaon,3231
Bangladesh,Sylhet,Moulvibazar,Moulvibazar Sadar,Afrozganj,3203
Bangladesh,Sylhet,Moulvibazar,Moulvibazar Sadar,Barakapan,3201
Bangladesh,Sylhet,Moulvibazar,Moulvibazar Sadar,Monumukh,3202
Bangladesh,Sylhet,Moulvibazar,Moulvibazar Sadar,Moulvibazar Sadar,3200
Bangladesh,Sylhet,Moulvibazar,Rajnagar,Rajnagar,3240
Bangladesh,Sylhet,Moulvibazar,Srimangal,Kalighat,3212
Bangladesh,Sylhet,Moulvibazar,Srimangal,Khejurichhara,3213
Bangladesh,Sylhet,Moulvibazar,Srimangal,Narain Chora,3211
Bangladesh,Sylhet,Moulvibazar,Srimangal,Satgaon,3214
Bangladesh,Sylhet,Moulvibazar,Srimangal,Srimangal,3210
Bangladesh,Sylhet,Sunamganj,Bishamsarpur,Bishamsapur,3010
Bangladesh,Sylhet,Sunamganj,Chhatak,Chhatak,3080
Bangladesh,Sylhet,Sunamganj,Chhatak,Chhatak Cement Facto,3081
Bangladesh,Sylhet,Sunamganj,Chhatak,Chhatak Paper Mills,3082
Bangladesh,Sylhet,Sunamganj,Chhatak,Chourangi Bazar,3893
Bangladesh,Sylhet,Sunamganj,Chhatak,Gabindaganj,3083
Bangladesh,Sylhet,Sunamganj,Chhatak,Gabindaganj Natun Ba,3084
Bangladesh,Sylhet,Sunamganj,Chhatak,Islamabad,3088
Bangladesh,Sylhet,Sunamganj,Chhatak,jahidpur,3087
Bangladesh,Sylhet,Sunamganj,Chhatak,Khurma,3085
Bangladesh,Sylhet,Sunamganj,Chhatak,Moinpur,3086
Bangladesh,Sylhet,Sunamganj,Dhirai Chandpur,Dhirai Chandpur,3040
Bangladesh,Sylhet,Sunamganj,Dhirai Chandpur,Jagdal,3041
Bangladesh,Sylhet,Sunamganj,Duara bazar,Duara bazar,3070
Bangladesh,Sylhet,Sunamganj,Ghungiar,Ghungiar,3050
Bangladesh,Sylhet,Sunamganj,Jagnnathpur,Atuajan,3062
Bangladesh,Sylhet,Sunamganj,Jagnnathpur,Hasan Fatemapur,3063
Bangladesh,Sylhet,Sunamganj,Jagnnathpur,Jagnnathpur,3060
Bangladesh,Sylhet,Sunamganj,Jagnnathpur,Rasulganj,3064
Bangladesh,Sylhet,Sunamganj,Jagnnathpur,Shiramsi,3065
Bangladesh,Sylhet,Sunamganj,Jagnnathpur,Syedpur,3061
Bangladesh,Sylhet,Sunamganj,Sachna,Sachna,3020
Bangladesh,Sylhet,Sunamganj,Sunamganj Sadar,Pagla,3001
Bangladesh,Sylhet,Sunamganj,Sunamganj Sadar,Patharia,3002
Bangladesh,Sylhet,Sunamganj,Sunamganj Sadar,Sunamganj Sadar,3000
Bangladesh,Sylhet,Sunamganj,Tahirpur,Tahirpur,3030
Bangladesh,Sylhet,Sylhet,Balaganj,Balaganj,3120
Bangladesh,Sylhet,Sylhet,Balaganj,Begumpur,3125
Bangladesh,Sylhet,Sylhet,Balaganj,Brahman Shashon,3122
Bangladesh,Sylhet,Sylhet,Balaganj,Gaharpur,3128
Bangladesh,Sylhet,Sylhet,Balaganj,Goala Bazar,3124
Bangladesh,Sylhet,Sylhet,Balaganj,Karua,3121
Bangladesh,Sylhet,Sylhet,Balaganj,Kathal Khair,3127
Bangladesh,Sylhet,Sylhet,Balaganj,Natun Bazar,3129
Bangladesh,Sylhet,Sylhet,Balaganj,Omarpur,3126
Bangladesh,Sylhet,Sylhet,Balaganj,Tajpur,3123
Bangladesh,Sylhet,Sylhet,Bianibazar,Bianibazar,3170
Bangladesh,Sylhet,Sylhet,Bianibazar,Churkai ,3175
Bangladesh,Sylhet,Sylhet,Bianibazar,jaldup,3171
Bangladesh,Sylhet,Sylhet,Bianibazar,Kurar bazar,3173
Bangladesh,Sylhet,Sylhet,Bianibazar,Mathiura,3172
Bangladesh,Sylhet,Sylhet,Bianibazar,Salia bazar,3174
Bangladesh,Sylhet,Sylhet,Bishwanath,Bishwanath,3130
Bangladesh,Sylhet,Sylhet,Bishwanath,Dashghar,3131
Bangladesh,Sylhet,Sylhet,Bishwanath,Deokalas,3133
Bangladesh,Sylhet,Sylhet,Bishwanath,Doulathpur,3132
Bangladesh,Sylhet,Sylhet,Bishwanath,Singer kanch,3134
Bangladesh,Sylhet,Sylhet,Fenchuganj,Fenchuganj,3116
Bangladesh,Sylhet,Sylhet,Fenchuganj,Fenchuganj SareKarkh,3117
Bangladesh,Sylhet,Sylhet,Goainhat,Chiknagul,3152
Bangladesh,Sylhet,Sylhet,Goainhat,Goainhat,3150
Bangladesh,Sylhet,Sylhet,Goainhat,Jaflong,3151
Bangladesh,Sylhet,Sylhet,Gopalganj,banigram,3164
Bangladesh,Sylhet,Sylhet,Gopalganj,Chandanpur,3165
Bangladesh,Sylhet,Sylhet,Gopalganj,Dakkhin Bhadashore,3162
Bangladesh,Sylhet,Sylhet,Gopalganj,Dhaka Dakkhin,3161
Bangladesh,Sylhet,Sylhet,Gopalganj,Gopalgannj,3160
Bangladesh,Sylhet,Sylhet,Gopalganj,Ranaping,3163
Bangladesh,Sylhet,Sylhet,Jaintapur,Jainthapur,3156
Bangladesh,Sylhet,Sylhet,Jakiganj,Ichhamati,3191
Bangladesh,Sylhet,Sylhet,Jakiganj,Jakiganj,3190
Bangladesh,Sylhet,Sylhet,Kanaighat,Chatulbazar,3181
Bangladesh,Sylhet,Sylhet,Kanaighat,Gachbari,3183
Bangladesh,Sylhet,Sylhet,Kanaighat,Kanaighat,3180
Bangladesh,Sylhet,Sylhet,Kanaighat,Manikganj,3182
Bangladesh,Sylhet,Sylhet,Kompanyganj,Kompanyganj,3140
Bangladesh,Sylhet,Sylhet,Sylhet Sadar,Birahimpur,3106
Bangladesh,Sylhet,Sylhet,Sylhet Sadar,Jalalabad,3107
Bangladesh,Sylhet,Sylhet,Sylhet Sadar,Jalalabad Cantoment,3104
Bangladesh,Sylhet,Sylhet,Sylhet Sadar,Kadamtali,3111
Bangladesh,Sylhet,Sylhet,Sylhet Sadar,Kamalbazer,3112
Bangladesh,Sylhet,Sylhet,Sylhet Sadar,Khadimnagar,3103
Bangladesh,Sylhet,Sylhet,Sylhet Sadar,Lalbazar,3113
Bangladesh,Sylhet,Sylhet,Sylhet Sadar,Mogla,3108
Bangladesh,Sylhet,Sylhet,Sylhet Sadar,Ranga Hajiganj,3109
Bangladesh,Sylhet,Sylhet,Sylhet Sadar,Shahajalal Science &,3114
Bangladesh,Sylhet,Sylhet,Sylhet Sadar,Silam,3105
Bangladesh,Sylhet,Sylhet,Sylhet Sadar,Sylhe Sadar,3100
Bangladesh,Sylhet,Sylhet,Sylhet Sadar,Sylhet Biman Bondar,3102
Bangladesh,Sylhet,Sylhet,Sylhet Sadar,Sylhet Cadet Col,3101
Bangladesh,Rangpur,Dinajpur,Bangla Hili,Bangla Hili,5270
Bangladesh,Rangpur,Dinajpur,Biral,Biral,5210
Bangladesh,Rangpur,Dinajpur,Birampur,Birampur,5266
Bangladesh,Rangpur,Dinajpur,Birganj,Birganj,5220
Bangladesh,Rangpur,Dinajpur,Chrirbandar,Chrirbandar,5240
Bangladesh,Rangpur,Dinajpur,Chrirbandar,Ranirbandar,5241
Bangladesh,Rangpur,Dinajpur,Dinajpur Sadar,Dinajpur Rajbari,5201
Bangladesh,Rangpur,Dinajpur,Dinajpur Sadar,Dinajpur Sadar,5200
Bangladesh,Rangpur,Dinajpur,Khansama,Khansama,5230
Bangladesh,Rangpur,Dinajpur,Khansama,Pakarhat,5231
Bangladesh,Rangpur,Dinajpur,Maharajganj,Maharajganj,5226
Bangladesh,Rangpur,Dinajpur,Nababganj,Daudpur,5281
Bangladesh,Rangpur,Dinajpur,Nababganj,Gopalpur,5282
Bangladesh,Rangpur,Dinajpur,Nababganj,Nababganj,5280
Bangladesh,Rangpur,Dinajpur,Osmanpur,Ghoraghat,5291
Bangladesh,Rangpur,Dinajpur,Osmanpur,Osmanpur,5290
Bangladesh,Rangpur,Dinajpur,Parbatipur,Parbatipur,5250
Bangladesh,Rangpur,Dinajpur,Phulbari,Phulbari,5260
Bangladesh,Rangpur,Dinajpur,Setabganj,Setabganj,5216
Bangladesh,Rangpur,Gaibandha,Bonarpara,Bonarpara,5750
Bangladesh,Rangpur,Gaibandha,Bonarpara,saghata,5751
Bangladesh,Rangpur,Gaibandha,Gaibandha Sadar,Gaibandha Sadar,5700
Bangladesh,Rangpur,Gaibandha,Gobindaganj,Gobindhaganj,5740
Bangladesh,Rangpur,Gaibandha,Gobindaganj,Mahimaganj,5741
Bangladesh,Rangpur,Gaibandha,Palashbari,Palashbari,5730
Bangladesh,Rangpur,Gaibandha,Phulchhari,Bharatkhali,5761
Bangladesh,Rangpur,Gaibandha,Phulchhari,Phulchhari,5760
Bangladesh,Rangpur,Gaibandha,Saadullapur,Naldanga,5711
Bangladesh,Rangpur,Gaibandha,Saadullapur,Saadullapur,5710
Bangladesh,Rangpur,Gaibandha,Sundarganj,Bamandanga,5721
Bangladesh,Rangpur,Gaibandha,Sundarganj,Sundarganj,5720
Bangladesh,Rangpur,Kurigram,Bhurungamari,Bhurungamari,5670
Bangladesh,Rangpur,Kurigram,Chilmari,Chilmari,5630
Bangladesh,Rangpur,Kurigram,Chilmari,Jorgachh,5631
Bangladesh,Rangpur,Kurigram,Kurigram Sadar,Kurigram Sadar,5600
Bangladesh,Rangpur,Kurigram,Kurigram Sadar,Pandul,5601
Bangladesh,Rangpur,Kurigram,Kurigram Sadar,Phulbari,5680
Bangladesh,Rangpur,Kurigram,Nageshwar,Nageshwar,5660
Bangladesh,Rangpur,Kurigram,Rajarhat,Nazimkhan,5611
Bangladesh,Rangpur,Kurigram,Rajarhat,Rajarhat,5610
Bangladesh,Rangpur,Kurigram,Rajibpur,Rajibpur,5650
Bangladesh,Rangpur,Kurigram,Roumari,Roumari,5640
Bangladesh,Rangpur,Kurigram,Ulipur,Bazarhat,5621
Bangladesh,Rangpur,Kurigram,Ulipur,Ulipur,5620
Bangladesh,Rangpur,Lalmonirhat,Aditmari,Aditmari,5510
Bangladesh,Rangpur,Lalmonirhat,Hatibandha,Hatibandha,5530
Bangladesh,Rangpur,Lalmonirhat,Lalmonirhat Sadar,Kulaghat SO,5502
Bangladesh,Rangpur,Lalmonirhat,Lalmonirhat Sadar,Lalmonirhat Sadar,5500
Bangladesh,Rangpur,Lalmonirhat,Lalmonirhat Sadar,Moghalhat,5501
Bangladesh,Rangpur,Lalmonirhat,Patgram,Baura,5541
Bangladesh,Rangpur,Lalmonirhat,Patgram,Burimari,5542
Bangladesh,Rangpur,Lalmonirhat,Patgram,Patgram,5540
Bangladesh,Rangpur,Lalmonirhat,Tushbhandar,Tushbhandar,5520
Bangladesh,Rangpur,Nilphamari,Dimla,Dimla,5350
Bangladesh,Rangpur,Nilphamari,Dimla,Ghaga Kharibari,5351
Bangladesh,Rangpur,Nilphamari,Domar,Chilahati,5341
Bangladesh,Rangpur,Nilphamari,Domar,Domar,5340
Bangladesh,Rangpur,Nilphamari,Jaldhaka,Jaldhaka,5330
Bangladesh,Rangpur,Nilphamari,Kishoriganj,Kishoriganj,5320
Bangladesh,Rangpur,Nilphamari,Nilphamari Sadar,Nilphamari Sadar,5300
Bangladesh,Rangpur,Nilphamari,Nilphamari Sadar,Nilphamari Sugar Mil,5301
Bangladesh,Rangpur,Nilphamari,Syedpur,Syedpur,5310
Bangladesh,Rangpur,Nilphamari,Syedpur,Syedpur Upashahar,5311
Bangladesh,Rangpur,Panchagarh,Boda,Boda,5010
Bangladesh,Rangpur,Panchagarh,Chotto Dab,Chotto Dab,5040
Bangladesh,Rangpur,Panchagarh,Chotto Dab,Mirjapur,5041
Bangladesh,Rangpur,Panchagarh,Dabiganj,Dabiganj,5020
Bangladesh,Rangpur,Panchagarh,Panchagra Sadar,Panchagar Sadar,5000
Bangladesh,Rangpur,Panchagarh,Tetulia,Tetulia,5030
Bangladesh,Rangpur,Rangpur,Badarganj,Badarganj,5430
Bangladesh,Rangpur,Rangpur,Badarganj,Shyampur,5431
Bangladesh,Rangpur,Rangpur,Gangachara,Gangachara,5410
Bangladesh,Rangpur,Rangpur,Kaunia,Haragachh,5441
Bangladesh,Rangpur,Rangpur,Kaunia,Kaunia,5440
Bangladesh,Rangpur,Rangpur,Mithapukur,Mithapukur,5460
Bangladesh,Rangpur,Rangpur,Pirgachha,Pirgachha,5450
Bangladesh,Rangpur,Rangpur,Rangpur Sadar,Alamnagar,5402
Bangladesh,Rangpur,Rangpur,Rangpur Sadar,Mahiganj,5403
Bangladesh,Rangpur,Rangpur,Rangpur Sadar,Rangpur Cadet Colleg,5404
Bangladesh,Rangpur,Rangpur,Rangpur Sadar,Rangpur Carmiecal Col,5405
Bangladesh,Rangpur,Rangpur,Rangpur Sadar,Rangpur Sadar,5400
Bangladesh,Rangpur,Rangpur,Rangpur Sadar,Rangpur Upa-Shahar,5401
Bangladesh,Rangpur,Rangpur,Taraganj,Taraganj,5420
Bangladesh,Rangpur,Thakurgaon,Baliadangi,Baliadangi,5140
Bangladesh,Rangpur,Thakurgaon,Baliadangi,Lahiri,5141
Bangladesh,Rangpur,Thakurgaon,Jibanpur,Jibanpur,5130
Bangladesh,Rangpur,Thakurgaon,Pirganj,Pirganj,5110
Bangladesh,Rangpur,Thakurgaon,Pirganj,Pirganj,5470
Bangladesh,Rangpur,Thakurgaon,Rani Sankail,Nekmarad,5121
Bangladesh,Rangpur,Thakurgaon,Rani Sankail,Rani Sankail,5120
Bangladesh,Rangpur,Thakurgaon,Thakurgaon Sadar,Ruhia,5103
Bangladesh,Rangpur,Thakurgaon,Thakurgaon Sadar,Shibganj,5102
Bangladesh,Rangpur,Thakurgaon,Thakurgaon Sadar,Thakurgaon Road,5101
Bangladesh,Rangpur,Thakurgaon,Thakurgaon Sadar,Thakurgaon Sadar,5100
